Unnamed: 0,address,categories,city,country,latitude,longitude,name,postalCode,province,websites
74,2819 Easton Rd,Fast Food Restaurants,Willow Grove,US,40.170877,-75.127393,Nino's Pizzarama,19090,PA,"http://www.ninospizzarama.com,http://ninospizzarama.net"
151,2040 Cumberland St,Fast Food Restaurant,Lebanon,US,40.33873,-76.447826,Burger King,17042,PA,http://www.bk.com
152,1451 Quentin Rd,Fast Food Restaurants,Lebanon,US,40.31787,-76.42396,Chipotle Mexican Grill,17042,PA,http://www.chipotle.com
222,1890 Bethlehem Pike,Fast Food Restaurant and Playground,Flourtown,US,40.111177,-75.214144,McDonald's,19031,PA,"http://mcdonalds.com,http://www.mcdonalds.com/?cid=RF:YXT_FM:TP::Yext:Referral"
229,505 S Oxford Valley Rd,Fast Food,Fairless Hills,US,40.169035,-74.849233,Arby's,19030,PA,"http://locations.arbys.com/us/pa/fairless-hills/505-s--oxford-valley-rd.html,http://www.arbys.com"
230,505 S Oxford Valley Rd,"Fast Food Restaurant, American Restaurant, and Sandwich Place",Fairless Hills,US,40.169035,-74.849233,Arby's,19030,PA,"http://locations.arbys.com/us/pa/fairless-hills/505-s--oxford-valley-rd.html,http://www.arbys.com"
231,888 E Main St,Fast Food Restaurants,Ephrata,US,40.164651,-76.154297,Arby's,17522,PA,"http://www.arbys.com,http://locations.arbys.com/us/pa/ephrata/888-e-main-st.html"
237,1104 W High St,Fast Food Restaurants,Ebensburg,US,40.48025,-78.73658,Fox's Pizza Den,15931,PA,http://www.foxspizzaden.com
238,285 Jamesway Rd,Fast Food Restaurants,Ebensburg,US,40.47425,-78.74575,Burger King,15931,PA,"https://locations.bk.com/pa/ebensburg/285-jamesway-rd.html,http://www.bk.com"
239,4105 Peach St,Fast Food Restaurant,Erie,US,42.092031,-80.084087,Arby's,16509,PA,"http://www.arbys.com,http://arbys.com"
240,3720 Pine Ave,"American Restaurant, Fast Food Restaurant, and Sandwich Place",Erie,US,42.108355,-80.050799,Arby's,16504,PA,"http://www.arbys.com,https://locations.arbys.com/us/pa/erie/3720-pine-ave.html,http://locations.arbys.com/us/pa/erie/3720-pine-ave.html,http://arbys.com"
242,105 S 3rd St,Fast Food Restaurant and Burger Joint,Coopersburg,US,40.509286,-75.385827,Burger King,18036,PA,http://www.bk.com
243,1306 E Main St,Fast Food Restaurants,Clarion,US,41.20821,-79.36712,Pizza Pub,16214,PA,"http://pizzapubclarion.com,http://www.pizzapubclarion.com,http://api.citygridmedia.com/content/places/v2/click?q=9YKflVKbY9NauPJdMy0B1gS1IhB4xv4EWw0zDoT-UWc_izWF3zs5PKGdfOHubWrvM0QwDCYwbOH2fdLi0dK5xArULcksCCbfR-WWAz9xD1AmGVAQZIom4U3n5R4DuRC8WJCtvJcNItEKoCSfzwapuGnmwGnHDpEGYXGjnN4u8zXqkiimSHFf4_dbqGRbVgNJEMsnd44e3L5Yp1WI1SdzNaDUSC-6EeXnMEaudnT8dJ5rK9vGubrNFl_iSMSj8TXUxDWpo50roOJ0_80_o8u4mfAKrUpOfjIglmNTztt6zXfyD4I0XdyJAuXoFrySnWsTjvLNj4ZBx-E-qbd2rly-8t1kGMDbxC2B-CHVY7Quh9iuPI_oBhCArZ4XjUGlBlkl8DQDpfPY9a0rFxRAtLVCaVV1uVw5IWTmgkQJUtqf_Y4zSrpuIKBUp2qmPmcX7_BZUx5SaBv8lo7Eo7KCkUj2HRZFdlVHiLdUm_p1_ZP-_oThFF1ssZB4zdq1iLY9QkYpd2uQ4NeQVUVNvSyBuE0yF91j3r1Q-N2HXHiMMqohi8A&placement=listing_profile&cs_user=unknown&cs_session=31a605fb8e46e65a844cc87656bcae1e0d8edea7"
244,4205 Washington Rd,Fast Food Restaurants,Canonsburg,US,40.26269,-80.13373,Grande Italian Restaurant,15317,PA,"http://grandeitalianrestaurant.com,http://www.grandeitalianrestaurant.com"
245,453 Valley Brook Rd Ste 200,Fast Food Restaurants,Canonsburg,US,40.28079,-80.08363,Pizza Hut,15317,PA,http://www.pizzahut.com
246,1208 W Front St,Fast Food Restaurants,Berwick,US,41.049741,-76.252443,Burger King,18603,PA,"https://locations.bk.com/pa/berwick/1208-w-front-st.html,http://www.bk.com"
247,4960 Library Rd,Fast Food Restaurants,Bethel Park,US,40.34341,-80.02729,Pizza Hut,15102,PA,http://www.pizzahut.com
437,1750 Rostraver Rd,Fast Food Restaurants,Belle Vernon,US,40.174915,-79.806673,Subway,15012,PA,http://www.subway.com
438,2693 Brodhead Rd,Fast Food Restaurants,Aliquippa,US,40.588694,-80.260898,Subway,15001,PA,http://www.subway.com
533,449 W Butler Ave,Fast Food Restaurants,Chalfont,US,40.270347,-75.223726,Subway,18914,PA,http://subway.com
548,500 Terry Rich Blvd,Fast Food Restaurants,Saint Clair,US,40.727488,-76.190098,Subway,17970,PA,http://www.subway.com
549,366 Center Ave,Fast Food Restaurants,Schuylkill Haven,US,40.637935,-76.171635,Subway,17972,PA,"http://api.citygridmedia.com/content/places/v2/click?q=9YKflVKbY9NauPJdMy0B1gS1IhB4xv4EWw0zDoT-UWc_izWF3zs5PKGdfOHubWrvM0QwDCYwbOH2fdLi0dK5xArULcksCCbfR-WWAz9xD1AmGVAQZIom4U3n5R4DuRC8WJCtvJcNItEKoCSfzwapuGnmwGnHDpEGYXGjnN4u8zXqkiimSHFf4_dbqGRbVgNJKrjt8ltVssL0CrQuIC3smdl25ufWDvZa8ymqZjjOaGNW3ARu_acFg70eZ0K_SK24TAc2TrtfjJ__bu_nReB5AUS2uy6enDJ8gsmVcU-rn4KWYBUxEjYRLYXpXWBYzMDT7h_Jk9NdbYbLCtGMvd46-BIziai12POjgsDOSJTi3E6cIbl6jWJKl7S5Kd9Mzu-74qxX9DUcbBMSv7fHK872k01dPacZ08WmMwtLxMUlbhdokFZ5Hu629rirmzHnNsycYoRUSOVzI632VkLVf53urSHYYaGO7Ks3TRnMUv16uIRSXFYkbjayIn3BEeFMqwqD6YREvzNvbFW42V8AUwbxz7VB4ZFXXAFN&placement=listing_profile&cs_user=unknown&cs_session=3c19ba3f861461e0299653369197945ce007098f,http://www.subway.com"
550,6 W Main St,Fast Food Restaurants,Bloomsburg,US,41.003082,-76.456548,Subway,17815,PA,http://www.subway.com
551,149 N 3rd St,Fast Food Restaurants,Columbia,US,40.033798,-76.504435,Subway,17512,PA,http://www.subway.com
552,2350 N Reading Rd,Fast Food Restaurants,Denver,US,40.228059,-76.089173,Subway,17517,PA,"http://www.subway.com,http://subway.com"
567,3200 Chestnut St,Fast Food,Philadelphia,US,39.95343,-75.188171,Shake Shack,19104,PA,"http://www.shakeshack.com,https://www.shakeshack.com/location/university-city/"
739,31 W Hanover St,Fast Food Restaurants,Spring Grove,US,39.882529,-76.864965,Subway,17362,PA,http://www.subway.com
740,608 E Main St,Fast Food Restaurants,Waynesboro,US,39.753163,-77.573373,Subway,17268,PA,http://www.subway.com
741,491 E Sycamore Rd,Fast Food Restaurants,Snow Shoe,US,41.026843,-77.935809,Subway,16874,PA,http://www.subway.com
742,1169 S Main St,Fast Food Restaurants,Mansfield,US,41.799828,-77.076281,Subway,16933,PA,http://www.subway.com
743,3455 Capital City Mall Dr,Fast Food Restaurants,Camp Hill,US,40.222472,-76.930148,Subway,17011,PA,http://www.subway.com
744,322 Spring Plz,Fast Food Restaurant,Roaring Spring,US,40.331501,-78.386171,Subway,16673,PA,"http://api.citygridmedia.com/content/places/v2/click?q=9YKflVKbY9NauPJdMy0B1gS1IhB4xv4EWw0zDoT-UWc_izWF3zs5PKGdfOHubWrvM0QwDCYwbOH2fdLi0dK5xArULcksCCbfR-WWAz9xD1AmGVAQZIom4U3n5R4DuRC8WJCtvJcNItEKoCSfzwapuGnmwGnHDpEGYXGjnN4u8zXqkiimSHFf4_dbqGRbVgNJqxeq3w27JG8x6DmgfoDYN2RTR5smBP-tM-1gZrEZ9sJiVWDb_uSohvDpyMRmqzzdf1du2jClD5lbMZWWQvfO6_QZXL8UCZHHeeZeQDP_wq4XCJ16SLjJmc5DdLyqlen7BZqoqDPZ2mF4tC1tOEtyutt8zuevVUGTbr2fK_VpUalthVGv1nkKn_u26sA94rwYtp3obbxKqj6fosndsu7s9xqVx5FtoVN-de2RiuxRmeR65l1C42_yD1q1a_azuuUZ_lIzA0qJMeoYKTCf8u9IRyiWGHdE0ET0wwHXyyWUBachYMbFpyrCiDZW2lThBfZKc0Jv7dDa3b73PKJnEs8NOOgHLWk0meVz&placement=listing_profile&cs_user=unknown&cs_session=536c417103de226f0332bcec6b3bcb47bf467d20,http://www.subway.com"
745,3104 W 26th St,Fast Food Restaurants,Erie,US,42.086667,-80.142521,Subway,16506,PA,http://subway.com
746,8035 Perry Hwy,Fast Food Restaurants,Erie,US,42.068814,-80.038942,Subway,16509,PA,http://www.subway.com
747,1501 E 38th St,Fast Food Restaurants,Erie,US,42.114222,-80.034149,Subway,16510,PA,http://www.subway.com
748,116 N Franklin St,Fast Food Restaurants,Titusville,US,41.627797,-79.673326,Subway,16354,PA,"http://www.subway.com,http://api.citygridmedia.com/content/places/v2/click?q=9YKflVKbY9NauPJdMy0B1gS1IhB4xv4EWw0zDoT-UWc_izWF3zs5PKGdfOHubWrvM0QwDCYwbOH2fdLi0dK5xArULcksCCbfR-WWAz9xD1AmGVAQZIom4U3n5R4DuRC8WJCtvJcNItEKoCSfzwapuGnmwGnHDpEGYXGjnN4u8zXqkiimSHFf4_dbqGRbVgNJk96tqZnpXGEJ-YhXL_nNcBadz0E_dzqDT_e1iQgNpRuV9gWF1hBX0NtHHb56Aciou22so3eqLu-qtBxVsnRQ63zIXnd20GonfYEMMben9a0pUUvfpvhfmxJTw6k3DLFADdWiyZzB4GW__t03aI76lb72NKyD2mXclr3gRBvY9OncHM7Uh2ec5Bou1Cg4L_E8PpWfyRlMOIlBXleO-2ChcJntmnBq38p8NfDR5-B_bfChMOLZDrPAKyZn9C0wzOZAAa6bh7TWMxs5brcwa62tqykeVV7KtwVsoK4YO-USJOGZaAcA0COWUMFpuD1EbTwlZREJnMt7-Qn5mwS9tfA_2Gj7q8UiWubx&placement=listing_profile&cs_user=unknown&cs_session=b6698387aed0f5de9dccd64032c2ea0682884bcf"
766,1027 Washington Pike,Fast Food Restaurants,Bridgeville,US,40.366766,-80.106088,Sonic Drive In,15017,PA,"https://locations.sonicdrivein.com/pa/bridgeville/1027-washington-pike.html,http://sonicdrivein.com"
767,2611 Washington Rd,Fast Food Restaurants,Canonsburg,US,40.255621,-80.153666,Sonic Drive In,15317,PA,"https://locations.sonicdrivein.com/pa/north-strabane-township/2611-washington-road.html,http://sonicdrivein.com"
965,830 Schuylkill Mall,Fast Food Restaurant,Frackville,US,40.768785,-76.223857,Arby's,17931,PA,"http://arbys.com,http://www.arbys.com"
967,2303 Elmira St,Fast Food,Sayre,US,41.981524,-76.543623,Arby's,18840,PA,"http://www.arbys.com,http://arbys.com,http://locations.arbys.com/us/pa/sayre/2303-elmira-st.html,https://locations.arbys.com/us/pa/sayre/2303-elmira-st.html"
1104,4001 N 5th St,Fast Food,Philadelphia,US,40.011978,-75.135868,KFC - Kentucky Fried Chicken,19140,PA,http://www.kfc.com/
1438,820 Beaver Valley Mall,Fast Food Restaurant,Monaca,US,40.671195,-80.312716,Arby's,15061,PA,"http://www.arbys.com,http://arbys.com"
1620,201 N 63rd St,"Pizza Place, Fried Chicken Joint, and Fast Food Restaurant",Philadelphia,US,39.96589,-75.245925,West Point Pizza,19139,PA,http://www.manta.com/c/mmsygf2/west-point-pizza
1621,83 Perkins Rd,Fast Food,Clarion,US,41.189678,-79.395163,Taco Bell,16214,PA,"http://www.tacobell.com,https://locations.tacobell.com/pa/clarion/83-perkins-rd.html?utm_source=yextandutm_campaign=yextpowerlistingsandutm_medium=referralandutm_term=030672andutm_content=website,https://locations.tacobell.com/pa/clarion/83-perkins-rd.html?utm_source=yext&utm_campaign=yextpowerlistings&utm_medium=referral&utm_term=030672&utm_content=website"
1662,2604 E Somerset St,Fast Food,Philadelphia,US,39.980387,-75.113118,Tacconelli's Pizza,19134,PA,http://www.tacconellispizzeria.com
1777,2805 N 22nd St,Sandwich Place and Fast Food Restaurant Allegheny West,Philadelphia,US,39.997345,-75.166952,Sumo Steaks,19132,PA,http://sumosteaks.com
1892,717 S Trooper Rd,Fast Food Restaurants,Norristown,US,40.126551,-75.406613,Qdoba Mexican Eats,19403,PA,http://www.qdoba.com
1900,1000 Airport Blvd,Fast Food Restaurants,Pittsburgh,US,40.496025,-80.256707,Charley's Grilled Subs,15231,PA,http://www.charleyssteakery.com
1914,38 E Market St,Fast Food Restaurants,West Chester,US,39.960063,-75.603388,Shawarma Kebab,19382,PA,"http://www.shawarmakebabpa.com,http://www.subway.com"
1928,2233 S Woodstock St,Fast Food Restaurants,Philadelphia,US,39.9237,-75.18028,King of Wings,19145,PA,"http://www.kingofwings1.com,http://www.kingofwings1.com/,http://kingofwings1.com"
1964,1100 Lincoln Hwy,Fast Food Restaurants,North Versailles,US,40.377725,-79.80345,Fox's Pizza Den,15137,PA,http://www.foxspizzaden.com
1972,91 York Rd,Fast Food Restaurants,Willow Grove,US,40.143045,-75.114041,Mandarin Garden,19090,PA,"http://mandaringardenrestaurant.com,http://api.citygridmedia.com/content/places/v2/click?q=9YKflVKbY9NauPJdMy0B1gS1IhB4xv4EWw0zDoT-UWc_izWF3zs5PKGdfOHubWrvM0QwDCYwbOH2fdLi0dK5xArULcksCCbfR-WWAz9xD1AmGVAQZIom4U3n5R4DuRC8WJCtvJcNItEKoCSfzwapuGnmwGnHDpEGYXGjnN4u8zXqkiimSHFf4_dbqGRbVgNJo0jZb2sbOkDuIRSJVGPXzCF9w6ogCc4D2CX966eL_qnJ1xdZsS1SsZ9ViQPoQlrptUq5lhXd-OQAjn4ULOlCrLJHtH6nBvR55ZdIpc-rapa0PnlEt4dI9PK5Lm0IEL1IA7bwuxg9SCb_VmZpWcmyqv79jVRjFx4BEPRsu-xhThkQgvunpW8IV7YXU2-Os0Nb_GiYsj2z2oRn-2u336BWia_2GWx4KY6nzIN3xKswEX_vKe4cTRWFqxwNXmjXVWhrpnBuVVAA8OQkZXXpGcG3MkQlpBOZ1QIVVlLLWKNQ8nC3MHfEM_7IkQVQvwoFcCn7ykR_Rm4tNbeIqgR4JqKtJ2vdjC3xQ2whrIKS9SQJu_VUzzGpPbYRMQ&placement=listing_profile&cs_user=unknown&cs_session=7ac1a566d1f255ebe2cd3d1961ecbec5e71dc0b8"
2021,3400 Aramingo Ave,Fast Food Restaurants,Philadelphia,US,39.99126,-75.101455,Subway,19134,PA,http://subway.com
2022,2201 Walnut St,Fast Food Restaurants,Philadelphia,US,39.950944,-75.177461,Subway,19103,PA,http://www.subway.com
2329,877 E Pittsburgh St,Fast Food Restaurants,Greensburg,US,40.302163,-79.5232,Boston Market,15601,PA,http://www.bostonmarket.com
2367,400 Terry Rich Blvd,Fast Food,Saint Clair,US,40.72859,-76.193586,Taco Bell,17970,PA,https://locations.tacobell.com/pa/saint-clair/400-terry-rich-blvd.html?utm_source=yextandutm_campaign=yextpowerlistingsandutm_medium=referralandutm_term=030494andutm_content=website
2469,4734 Lebanon Church Rd,Fast Food Restaurants,Dravosburg,US,40.35433,-79.900709,Mr. Hoagie,15034,PA,http://mrhoagie.com
2574,3705 Germantown Ave,Fast Food,Philadelphia,US,40.009414,-75.150843,Dunkin' Donuts,19140,PA,"http://www.dunkindonuts.com,https://www.dunkindonuts.com/,http://dunkindonuts.com"
2578,2901 Abbottsford Ave,Fast Food,Philadelphia,US,40.017422,-75.17215,Dunkin' Donuts,19129,PA,"http://www.dunkindonuts.com,http://dunkindonuts.com"
2580,2318 N Front St,Fast Food,Philadelphia,US,39.985098,-75.132111,Dunkin' Donuts,19133,PA,http://www.dunkindonuts.com
2581,221 W Hunting Park Ave,Fast Food,Philadelphia,US,40.014433,-75.130667,Dunkin' Donuts,19140,PA,"http://www.dunkindonuts.com,https://www.dunkindonuts.com/"
2582,2327 Cottman Ave,Fast Food,Philadelphia,US,40.048325,-75.061035,Dunkin' Donuts,19149,PA,"http://www.dunkindonuts.com,http://dunkindonuts.com"
2584,1501 N 52nd St,Fast Food,Philadelphia,US,39.977237,-75.226766,Dunkin' Donuts,19131,PA,"http://www.dunkindonuts.com,http://www.dunkindonuts.com/,http://dunkindonuts.com"
2647,3050 Churchview Ave,Fast Food Restaurants,Pittsburgh,US,40.385779,-79.96767,The Pizza Company,15227,PA,http://www.thepizzacompany.biz
2681,6105 Saltsburg Rd,Fast Food Restaurant,Verona,US,40.484691,-79.819177,Arby's,15147,PA,"http://www.arbys.com,http://locations.arbys.com/us/pa/verona/6105-saltsburg-rd.html"
2685,4310 Union Deposit Rd,"Fast Food Restaurant, American Restaurant, and Sandwich Place",Harrisburg,US,40.279585,-76.812669,Arby's,17111,PA,http://www.arbys.com
2686,4310 Union Deposit Rd,Fast Food,Harrisburg,US,40.279585,-76.812669,Arby's,17111,PA,http://www.arbys.com
2689,2812 W 26th St,"Fast Food Restaurant, American Restaurant, and Sandwich Place",Erie,US,42.089303,-80.135565,Arby's,16506,PA,"http://www.arbys.com,http://arbys.com"
2749,431 N 62nd St,Fast Food Restaurants,Philadelphia,US,39.969326,-75.243301,Jim's Steaks,19151,PA,"http://jimssteaksphilly.com,http://www.jimssteaks.com,http://jimssteaksphilly.com/"
2808,1201 W Linden St,Fast Food Restaurants,Allentown,US,40.600941,-75.482596,Kow Thai Take Out,18102,PA,http://kowthaitakeout.com
2810,2150 White St,Fast Food Restaurants,York,US,39.961945,-76.770695,Shangri-la Chinese Restaurant,17404,PA,"http://shangrilachineserestaurant.net,http://www.shangrilachineserestaurant.com"
3197,1280 MacArthur Rd,Fast Food Restaurant,Whitehall,US,40.624106,-75.482147,White Castle,18052,PA,http://www.whitecastle.com
3208,2410 Catasauqua Rd,Fast Food Restaurant,Bethlehem,US,40.6435,-75.426921,Primo Hoagies,18018,PA,http://www.primohoagies.com
3217,3925 Walnut St,Fast Food Restaurants,Philadelphia,US,39.954332,-75.201935,Bobby's Burger Palace,19104,PA,http://www.bobbysburgerpalace.com
3351,308 Scenery Dr,Fast Food Restaurants,Elizabeth,US,40.278776,-79.837097,Italian Village Pizza,15037,PA,http://italianvillagepizza.com
3420,20 Commerce Drive,Fast Food,Milroy,US,40.702948,-77.591804,Arby's,17063,PA,"http://www.arbys.com,http://locations.arbys.com/us/pa/milroy/20-commerce-drive.html"
3472,7028 Us 322,Fast Food Restaurant,Cranberry,US,41.35025,-79.71524,McDonald's,16319,PA,"http://www.mcdonalds.com/?cid=RF:YXT_FM:TP::Yext:Referral,http://api.citygridmedia.com/content/places/v2/click?q=9YKflVKbY9NauPJdMy0B1gS1IhB4xv4EWw0zDoT-UWc_izWF3zs5PKGdfOHubWrvM0QwDCYwbOH2fdLi0dK5xArULcksCCbfR-WWAz9xD1AmGVAQZIom4U3n5R4DuRC8WJCtvJcNItEKoCSfzwapuGnmwGnHDpEGYXGjnN4u8zXqkiimSHFf4_dbqGRbVgNJk6fHPllBeZGIGcT3Iun1I5YV_fW3MIJrSJV4E2am7vq1A9Q4uYWc_QUoi3djsDy2wqSl5EXLFPIiFz3SWfnFBOWEDxsdor7tIRrjVBBpxu0ENj3QWHXC5rrlIdq8Cdy2oAbtwzh845skxGQxhMhGzEsgWbqT8IyUqEvvxNA7VOe8rHqgE3e5vhrcOhNNHw_41LzY9rDJZzYKXy_4wY1CN_zYK-zmY5QmpibvikOho1-lqfcAT4QvK2ZBdMBDgRf8fLhAkCs-eVLY2jl5INKa-C53Nb4xT-zMFD2kJ7UoPJQfzh_0aVefN4e-fvqUBzTPI85tGN3qGTN6rcjBbe6cTc3drWUCMpUy&placement=listing_profile&cs_user=unknown&cs_session=b8ee986b6e1cdc1a8f18d42443ed01a09e43aedb"
3474,106 Collinsburg Rd,Fast Food Restaurants,West Newton,US,40.21176,-79.76943,Fox's Pizza Den,15089,PA,http://www.foxspizzaden.com
3480,4701 Edgmont Ave,Fast food restaurants,Brookhaven,US,39.875819,-75.393101,Burger King,19015,PA,"http://www.bk.com,https://locations.bk.com/pa/brookhaven/4701-edgmont-ave.html"
3481,4701 Edgmont Ave,Fast Food Restaurant,Brookhaven,US,39.875819,-75.393101,Burger King,19015,PA,"http://www.bk.com,https://locations.bk.com/pa/brookhaven/4701-edgmont-ave.html"
3482,4011 Edgmont Ave,Fast Food Restaurants,Brookhaven,US,39.87257,-75.38722,Abruzzi Pizza,19015,PA,"http://abruzzipizzabrookhaven.com,http://www.abruzzipizzabrookhaven.com"
3500,2217 Lincoln Hwy E,Fast Food Restaurants,Lancaster,US,40.02769,-76.22198,Tony Wang's Chinese Restaurant,17602,PA,"http://www.tonywangs.com,http://tonywangs.com,http://ww7.tonywangs.com"
3541,101 Clearview Cir,Fast Food Restaurants,Butler,US,40.900311,-79.907738,Subway,16001,PA,"http://subway.com,http://www.subway.com"
3542,450 Schoolhouse Rd,Fast Food Restaurants,Johnstown,US,40.269558,-78.837952,Subway,15904,PA,"http://www.subway.com,http://subway.com"
3552,1617 N George St,Fast Food Restaurants,York,US,39.984772,-76.735218,Hardee's,17404,PA,http://www.hardees.com
3553,517 W Main St,Fast Food Restaurants,Uniontown,US,39.909589,-79.743996,Hardee's,15401,PA,http://www.hardees.com
3554,16395 Lincoln Hwy,Fast Food Restaurants,Breezewood,US,39.999421,-78.240428,Hardee's,15533,PA,"http://www.hardees.com,http://hardees.com"
3555,16395 Lincoln Hwy,Fast Food Restaurant,Breezewood,US,39.999421,-78.240428,Hardee's,15533,PA,"http://www.hardees.com,http://hardees.com"
3556,625 Lincoln Way E,Fast Food Restaurant,Chambersburg,US,39.934121,-77.649992,Hardee's,17201,PA,http://www.hardees.com
3618,301 Cumberland Hwy,Fast Food Restaurants,Berlin,US,39.917146,-78.952807,Subway,15530,PA,http://www.subway.com
3619,198 Grant St,Fast Food Restaurants,Meyersdale,US,39.813648,-79.025995,Subway,15552,PA,"http://www.subway.com,http://api.citygridmedia.com/content/places/v2/click?q=9YKflVKbY9NauPJdMy0B1gS1IhB4xv4EWw0zDoT-UWc_izWF3zs5PKGdfOHubWrvM0QwDCYwbOH2fdLi0dK5xArULcksCCbfR-WWAz9xD1AmGVAQZIom4U3n5R4DuRC8WJCtvJcNItEKoCSfzwapuGnmwGnHDpEGYXGjnN4u8zXqkiimSHFf4_dbqGRbVgNJgpu4EcgthNr1eCa-jJ0A1QDOuhCyh7Yc0q92lN9gF9Da1X9MnRUfHy-uEo1x_Q4YZ_rFu_JOSavz6zZNPthWXPGD7i7u7nSkPVz2jqX2P4YlDKQqzd09dMnzk39MCpHJzGkcxl7TfUf8pxTVweQilcaIKMrSUZTlKXXDSLifDQOOR-xzMxQ2ZLr6AaBB1N3ddIo84kqEH358Fdzh34PwdfKSFKYbGp8OKTWMoq8dmd20ypVtvSlFziOdYEOcYnvT5C_ocXo6N-u_4jGonbIeiiWMS_nCjMOK-nqqkVJlJWgFx2U_1w52HYiG9bnv_BlOOW8DthyB4aNdB0PYTsENkhxIDe3ThQag&placement=listing_profile&cs_user=unknown&cs_session=2464618c7d92494112b91e22e5ef9feb767b5105"
3620,175 E Pike St,Fast Food Restaurants,Canonsburg,US,40.259833,-80.181385,Subway,15317,PA,http://www.subway.com
3621,113 Roberts Rd,Fast Food Restaurants,Grindstone,US,40.012608,-79.864528,Subway,15442,PA,http://www.subway.com
3678,7221 Torresdale Ave,Fast Food,Philadelphia,US,40.029518,-75.036344,Dunkin' Donuts,19135,PA,http://www.dunkindonuts.com
3679,701 Market St,Fast Food,Philadelphia,US,39.950954,-75.152012,Dunkin' Donuts,19106,PA,"http://www.dunkindonuts.com,http://www.dunkindonuts.com/"
3680,5753 Wayne Ave,Fast Food,Philadelphia,US,40.032183,-75.17969,Dunkin' Donuts,19144,PA,http://www.dunkindonuts.com
3686,1665 State Hill Rd,Fast Food Restaurants,Reading,US,40.33835,-75.97251,Chick-fil-A,19610,PA,http://www.chick-fil-a.com/berkshiremall
3687,461 Clairton Blvd,Fast Food Restaurant,Pittsburgh,US,40.335529,-79.947258,Chick-fil-A,15236,PA,http://www.chick-fil-a.com/pleasanthills
3688,6379 Hamilton Blvd,Fast Food Restaurant,Allentown,US,40.5554,-75.581833,Chick-fil-A,18106,PA,http://www.chick-fil-a.com/trexlertown
3689,805 Baltimore Pike,Fast Food Restaurants,Springfield,US,39.916857,-75.33369,Chick-fil-A,19064,PA,"http://www.chick-fil-a.com/springfieldpark,http://chick-fil-a.com/springfieldpark"
3690,1000 Ross Park Mall Dr,Fast Food Restaurant,Pittsburgh,US,40.541146,-80.006528,Chick-fil-A,15237,PA,http://www.chick-fil-a.com/rossparkmall
3691,901 Market St,Fast Food,Philadelphia,US,39.951333,-75.155183,Chick-fil-A,19107,PA,http://chick-fil-a.com/
3692,2204 S Columbus Blvd,Fast Food Restaurant,Philadelphia,US,39.919417,-75.140662,Chick-fil-A,19148,PA,"http://www.chick-fil-a.com/columbuscommons,https://www.chick-fil-a.com/Locations/PA/Columbus-Commons"
3693,280 Exton Square Mall,"Fast Food Restaurant, American Restaurant, and Sandwich Place",Exton,US,40.030127,-75.623315,Chick-fil-A,19341,PA,http://www.chick-fil-a.com/extonsquare
3694,280 Exton Square Mall,Fast Food Restaurants,Exton,US,40.030127,-75.623315,Chick-fil-A,19341,PA,http://www.chick-fil-a.com/extonsquare
3717,3351 Washington Rd,Fast Food Restaurants,Canonsburg,US,40.288435,-80.115009,Dairy Queen,15317,PA,"http://www.dairyqueen.com,http://dairyqueen.com"
3718,256 Allegheny Blvd,Fast Food Restaurant and Ice Cream Shop,Brookville,US,41.173761,-79.098231,Dairy Queen,15825,PA,"http://www.dairyqueen.com,http://api.citygridmedia.com/content/places/v2/click?q=9YKflVKbY9NauPJdMy0B1gS1IhB4xv4EWw0zDoT-UWc_izWF3zs5PKGdfOHubWrvM0QwDCYwbOH2fdLi0dK5xArULcksCCbfR-WWAz9xD1AmGVAQZIom4U3n5R4DuRC8WJCtvJcNItEKoCSfzwapuGnmwGnHDpEGYXGjnN4u8zXqkiimSHFf4_dbqGRbVgNJFtzGYXKt9S0sSria4mdS28Y03QV-Vrnd6RGFIOFNWVNciNsT5JHeOnXU5mnsS-NVRFdpG00CyTJ6MpQGxLdZmOnehxE5F_DADfW0crknILVoYfsHAFMPgc1PKxlwJfNcx4DHbGM3AVWFDML8YLlSA9Bv2VnSb8HMVAsH0YyskUs-JxSq-BXC5RTNd96x_S2bSc9afLgY-kFurgJddu2N99SQo-Jj5QYuvJW8rv0Q1JpLMX3Y1EZcgGQm_Xdv6u3ZbLIlO-DbvfP4JoCE9-0cbCxF1Joa7hFfP5ngBgKO4FjVYbEhJMPxYdVpWuRyVz8WDfzxjCejLq5umUmdceho4pu_QtA-kRtz&placement=listing_profile&cs_user=unknown&cs_session=15eff7bd6dcf5592c7f46b21b99ef8b388047d88"
3719,155 Richard St,Fast Food Restaurants,Philipsburg,US,40.900253,-78.208057,Dairy Queen,16866,PA,http://www.dairyqueen.com
3970,122 Clearview Cir,Fast Food Restaurant,Butler,US,40.895847,-79.906667,Wendy's,16001,PA,"https://locations.wendys.com/butler-pa-2387,http://www.wendys.com"
3971,6101 Carlisle Pike,Fast Food Restaurant,Mechanicsburg,US,40.243914,-76.993586,Wendy's,17050,PA,http://www.wendys.com
3972,310 Macdade Blvd,Fast Food Restaurant,Folsom,US,39.888111,-75.328327,Wendy's,19033,PA,http://www.wendys.com
3973,1125 Washington Pike,Fast Food Restaurant and Burger Joint,Bridgeville,US,40.369327,-80.101457,Wendy's,15017,PA,http://www.wendys.com
3974,3500 Washington Rd,Fast Food Restaurant and Burger Joint,Canonsburg,US,40.284727,-80.1202,Wendy's,15317,PA,"http://wendys.com,http://www.wendys.com"
3975,700 E Gay St,Fast Food Restaurants,West Chester,US,39.964937,-75.595323,Wendy's,19380,PA,http://www.wendys.com
3976,555 W Lancaster Ave,Fast Food Restaurant,Haverford,US,40.017047,-75.309245,Wendy's,19041,PA,"http://www.wendys.com,http://wendys.com"
3977,220 W Lancaster Ave,Fast Food Restaurant and Burger Joint,Paoli,US,40.041621,-75.493318,Wendy's,19301,PA,"http://www.wendys.com,http://wendys.com"
3978,180 Swedesford Rd,Fast Food Restaurant,Devon,US,40.070993,-75.43949,Wendy's,19333,PA,http://www.wendys.com
3979,180 Swedesford Rd,Fast Food Restaurants,Devon,US,40.070993,-75.43949,Wendy's,19333,PA,http://www.wendys.com
3980,111 Golfview Dr,Fast Food Restaurant,Monaca,US,40.673895,-80.310074,Wendy's,15061,PA,http://www.wendys.com
3981,3390 Lehigh St,Fast Food Restaurant,Allentown,US,40.553858,-75.490919,Wendy's,18103,PA,"http://wendys.com,http://www.wendys.com"
4070,344 W Trenton Ave,Fast food restaurants,Morrisville,US,40.210196,-74.796641,Burger King,19067,PA,http://www.bk.com
4071,71 Cumberland Pkwy,Fast Food Restaurants,Mechanicsburg,US,40.193887,-76.99012,Burger King,17055,PA,https://locations.bk.com/pa/mechanicsburg/71-cumberland-parkway.html
4072,16733 Conneaut Lake Rd,Fast Food Restaurant,Meadville,US,41.622568,-80.201387,Burger King,16335,PA,http://www.bk.com
4073,562 High St,Fast Food Restaurants,Lock Haven,US,41.129175,-77.466112,Burger King,17745,PA,https://locations.bk.com/pa/lock-haven/562-high-st.html
4074,310 N Derr Dr,Fast Food Restaurants,Lewisburg,US,40.964711,-76.892409,Burger King,17837,PA,"https://www.bk.com,https://locations.bk.com/pa/lewisburg/310-n-derr-dr.html,http://www.bk.com"
4075,130 S Wyoming Ave,Fast food restaurants,Kingston,US,41.259992,-75.899212,Burger King,18704,PA,"http://www.bk.com,https://locations.bk.com/pa/kingston/130-s-wyoming-ave.html"
4076,1508 Scalp Ave,Fast Food Restaurants,Johnstown,US,40.26938,-78.85706,Burger King,15904,PA,"https://locations.bk.com/pa/johnstown/1508-scalp-ave.html,https://www.bk.com,http://www.bk.com"
4077,440 Galleria Dr,Fast Food Restaurants,Johnstown,US,40.293916,-78.838107,Burger King,15904,PA,"https://locations.bk.com/pa/johnstown/440-galleria-dr.html,http://www.bk.com"
4078,501 Macdade Blvd,Fast Food Restaurant and Burger Joint,Holmes,US,39.913882,-75.273328,Burger King,19043,PA,"http://www.bk.com,https://locations.bk.com/pa/holmes/501-macdade-blvd.html,http://bk.com"
4079,3253 Paxton St,Fast Food Restaurant,Harrisburg,US,40.254298,-76.834182,Burger King,17111,PA,"https://locations.bk.com/pa/harrisburg/3253-paxton-st.html,http://www.bk.com"
4085,60 Arsenal Rd,Fast Food Restaurants,York,US,39.983692,-76.732797,McDonald's,17404,PA,"http://mcdonalds.com,http://www.mcdonalds.com/?cid=RF:YXT_FM:TP::Yext:Referral"
4086,2752 Macarthur Rd,Fast Food,Whitehall,US,40.646651,-75.495608,McDonald's,18052,PA,"http://www.mcdonalds.com/?cid=RF:YXT_FM:TP::Yext:Referral,http://mcdonalds.com"
4087,302 E Main St,Fast Food,Waynesboro,US,39.754377,-77.575475,McDonald's,17268,PA,"http://mcdonalds.com,http://www.mcdonalds.com/?cid=RF:YXT_FM:TP::Yext:Referral"
4088,380 Memory Ln,Fast Food Restaurant,York,US,39.978529,-76.681603,McDonald's,17402,PA,"http://mcdonalds.com,http://www.mcdonalds.com/?cid=RF:YXT_FM:TP::Yext:Referral"
4089,2061 S Queen St,Fast Food Restaurants,York,US,39.936944,-76.692748,McDonald's,17403,PA,"http://mcdonalds.com,http://www.mcdonalds.com/?cid=RF:YXT_FM:TP::Yext:Referral"
4090,1730 E 3rd St,Fast Food Restaurant,Williamsport,US,41.249725,-76.970092,McDonald's,17701,PA,"http://mcdonalds.com,http://www.mcdonalds.com/?cid=RF:YXT_FM:TP::Yext:Referral"
4091,999 Jefferson Ave,Fast Food,Washington,US,40.182182,-80.264269,McDonald's,15301,PA,"http://mcdonalds.com,http://www.mcdonalds.com/?cid=RF:YXT_FM:TP::Yext:Referral"
4092,2251 Century Dr,Fast Food,West Mifflin,US,40.34389,-79.943316,McDonald's,15122,PA,"http://mcdonalds.com,http://www.mcdonalds.com/?cid=RF:YXT_FM:TP::Yext:Referral"
4093,2601 Macarthur Rd,Fast Food Restaurant,Whitehall,US,40.645209,-75.488484,McDonald's,18052,PA,http://mcdonalds.com
4094,473 Main St,Fast Food Restaurants,Walnutport,US,40.756696,-75.595014,McDonald's,18088,PA,"http://mcdonalds.com,http://www.mcdonalds.com/?cid=RF:YXT_FM:TP::Yext:Referral"
4095,133 S 69th St,Fast Food Restaurants,Upper Darby,US,39.958097,-75.258148,McDonald's,19082,PA,"http://mcdonalds.com,http://www.mcdonalds.com/?cid=RF:YXT_FM:TP::Yext:Referral"
4096,133 S 69th St,Fast Food Restaurant,Upper Darby,US,39.958097,-75.258148,McDonald's,19082,PA,"http://mcdonalds.com,http://www.mcdonalds.com/?cid=RF:YXT_FM:TP::Yext:Referral"
4097,133 S 69th St,Fast Food,Upper Darby,US,39.958097,-75.258148,McDonald's,19082,PA,"http://mcdonalds.com,http://www.mcdonalds.com/?cid=RF:YXT_FM:TP::Yext:Referral"
4098,1294 W Chestnut St,Fast Food Restaurants,Washington,US,40.165528,-80.27166,McDonald's,15301,PA,"http://mcdonalds.com,http://www.mcdonalds.com/?cid=RF:YXT_FM:TP::Yext:Referral"
4257,1037 Chestnut St,Fast Food Restaurants,Philadelphia,US,39.950332,-75.158423,Taco Bell,19107,PA,"http://tacobell.com,https://locations.tacobell.com/pa/philadelphia/1037-chestnut-st.html?utm_source=yextandutm_campaign=yextpowerlistingsandutm_medium=referralandutm_term=029331andutm_content=website"
4258,1037 Chestnut St,Fast Food Restaurant,Philadelphia,US,39.950332,-75.158423,Taco Bell,19107,PA,"http://tacobell.com,https://locations.tacobell.com/pa/philadelphia/1037-chestnut-st.html?utm_source=yextandutm_campaign=yextpowerlistingsandutm_medium=referralandutm_term=029331andutm_content=website"
4267,11021122 Airport Rd,Fast Food Restaurants,Allentown,US,40.627033,-75.442922,Taco Bell,18109,PA,http://www.tacobell.com
4294,1340 West Chestnut Street,Fast Food,Washington,US,40.165211,-80.271409,Taco Bell,15301,PA,https://locations.tacobell.com/pa/washington/1340-west-chestnut-street.html?utm_source=yext&utm_campaign=yextpowerlistings&utm_medium=referral&utm_term=026118&utm_content=website
4305,110 South Wyoming Avenue,Fast Food,Kingston,US,41.259894,-75.899957,Taco Bell,18704,PA,https://locations.tacobell.com/pa/kingston/110-south-wyoming-avenue.html?utm_source=yext&utm_campaign=yextpowerlistings&utm_medium=referral&utm_term=028965&utm_content=website
4387,3417 Forbes Ave,"Fast Food Restaurant, American Restaurant, and Sandwich Place",Pittsburgh,US,40.439155,-79.960715,Arby's,15213,PA,"http://arbys.com/our-menu,http://www.arbys.com"
4388,3417 Forbes Ave,Fast Food Restaurant,Pittsburgh,US,40.439155,-79.960715,Arby's,15213,PA,"http://arbys.com/our-menu,http://www.arbys.com"
4389,4810 McKnight Rd,Fast Food Restaurant,Pittsburgh,US,40.525383,-80.004974,Arby's,15237,PA,"http://www.arbys.com,https://locations.arbys.com/us/pa/pittsburgh/4810-mcknight-rd.html"
4390,3210 N 5th St Hwy,Fast Food Restaurant,Reading,US,40.383884,-75.928116,Arby's,19605,PA,http://www.arbys.com
4391,91 N Londonderry Sq,Fast Food Restaurant,Palmyra,US,40.320538,-76.562834,Arby's,17078,PA,"http://www.arbys.com,http://locations.arbys.com/us/pa/palmyra/91-n-londonderry-sq.html"
4392,577 Franklin Mills Blvd,"Fast Food Restaurant, American Restaurant, and Sandwich Place Northeast Philadelphia",Philadelphia,US,40.089864,-74.964175,Arby's,19154,PA,"http://www.arbys.com,https://locations.arbys.com/us/pa/philadelphia/577-franklin-mills-blvd.html,http://arbys.com"
4393,800 Commons Dr,"Fast Food Restaurant, Sandwich Place, and American Restaurant",Parkesburg,US,39.982869,-75.935227,Arby's,19365,PA,"http://www.arbys.com,https://locations.arbys.com/us/pa/parkesburg/800-commons-dr.html,http://locations.arbys.com/us/pa/parkesburg/800-commons-dr.html"
4394,3224 Wilmington Rd,"American Restaurant, Fast Food Restaurant, and Sandwich Place",New Castle,US,41.053988,-80.356756,Arby's,16105,PA,"http://www.arbys.com,http://locations.arbys.com/us/pa/new-castle/3224-wilmington-rd.html,http://arbys.com"
4395,16 E Germantown Pike,Fast Food Restaurants,Norristown,US,40.140354,-75.311482,Arby's,19401,PA,http://locations.arbys.com/us/pa/norristown/16-e-germantown-pike.html
4396,2210 Summit Ridge Plaza,Fast Food,Mount Pleasant,US,40.128341,-79.548106,Arby's,15666,PA,"http://www.arbys.com,https://locations.arbys.com/us/pa/mount-pleasant/2210-summit-ridge-plaza.html"
4397,9242 Route 30,Fast Food Restaurant,Irwin,US,40.321592,-79.695752,Arby's,15642,PA,"http://www.arbys.com,https://locations.arbys.com/us/pa/irwin/9242-route-30.html"
4398,1243 Scalp Ave,Fast Food Restaurants,Johnstown,US,40.276861,-78.860262,Arby's,15904,PA,"http://www.arbys.com,https://locations.arbys.com/us/pa/johnstown/1243-scalp-ave.html,http://locations.arbys.com/us/pa/johnstown/1243-scalp-ave.html"
4399,7521 New Perry Hwy,"Fast Food Restaurant, American Restaurant, and Sandwich Place",Erie,US,42.072191,-80.04191,Arby's,16509,PA,"http://www.arbys.com,http://arbys.com"
4400,1099 Wayne Ave,Fast Food,Chambersburg,US,39.910492,-77.649344,Arby's,17201,PA,"http://www.arbys.com,https://locations.arbys.com/us/pa/chambersburg/1099-wayne-ave.html"
4528,4300 Roosevelt Blvd,Fast Food,Philadelphia,US,40.029759,-75.105425,Charlie's Pizzeria,19124,PA,http://charlies-pizzeria.com
4679,501 Harrison Ave,Fast Food Restaurants,Jeannette,US,40.332139,-79.606104,Johnny's Wife's Place,15644,PA,"http://www.facebook.com,http://johnnyswifesplace.com"
4701,326 N Chester Pike,Fast Food Restaurants,Glenolden,US,39.903139,-75.283903,Subway,19036,PA,http://www.subway.com
4704,1136 Baltimore Pike,Fast Food Restaurants,Springfield,US,39.913852,-75.345867,Subway,19064,PA,http://www.subway.com
4982,308 S Queen St,Fast Food Restaurants,Lancaster,US,40.033293,-76.30476,Dominion Pizza,17603,PA,http://www.dominionpizza.com
5042,520 Galleria Dr,Fast Food Restaurants,Johnstown,US,40.297204,-78.835989,Long John Silver's,15904,PA,http://www.ljsilvers.com
5117,385 S Cedar Crest Blvd,Fast Food Restaurant,Allentown,US,40.58345,-75.522602,Boston Market,18103,PA,"https://www.bostonmarket.com/menu,https://bostonmarket.com/location/allentown-pa-1323/?utm_source=Yext&utm_medium=click&utm_campaign=listings&utm_content=1323"
5118,385 S Cedar Crest Blvd,Fast Food Restaurants,Allentown,US,40.58345,-75.522602,Boston Market,18103,PA,"https://www.bostonmarket.com/menu,https://bostonmarket.com/location/allentown-pa-1323/?utm_source=Yext&utm_medium=click&utm_campaign=listings&utm_content=1323"
5140,14 Main St,Fast Food Restaurants,Glen Rock,US,39.793478,-76.730896,Mignano Bros,17327,PA,http://mignanopizza.com
5146,258 E Lincoln Hwy,Fast Food Restaurants,Coatesville,US,39.983436,-75.820852,Crown Fried Chicken,19320,PA,http://www.crownfriedchicken.com
5182,5372 Allentown Pike,Fast Food,Temple,US,40.417026,-75.918858,McDonald's,19560,PA,http://mcdonalds.com
5192,25 E Chestnut St,Fast Food Restaurants,Mifflinburg,US,40.921585,-77.035668,McDonald's,17844,PA,"http://mcdonalds.com,http://www.mcdonalds.com/?cid=RF:YXT_FM:TP::Yext:Referral"
5193,4235 Walnut St,Fast Food,McKeesport,US,40.32189,-79.837342,McDonald's,15132,PA,"http://www.mcdonalds.com/?cid=RF:YXT_FM:TP::Yext:Referral,http://www.mcdonalds.com"
5194,430 N Queen St,Fast Food,Littlestown,US,39.74966,-77.093895,McDonald's,17340,PA,"http://mcdonalds.com,http://www.mcdonalds.com/?cid=RF:YXT_FM:TP::Yext:Referral"
5195,423 Bellefonte Ave,Fast Food,Lock Haven,US,41.134843,-77.453863,McDonald's,17745,PA,"http://mcdonalds.com,http://www.mcdonalds.com/?cid=RF:YXT_FM:TP::Yext:Referral"
5196,1257 Blakeslee Boulevard Dr E,Fast Food Restaurant,Lehighton,US,40.814993,-75.734528,McDonald's,18235,PA,"http://mcdonalds.com,http://www.mcdonalds.com/?cid=RF:YXT_FM:TP::Yext:Referral"
5197,1880 Hempstead Rd,Fast Food Restaurant,Lancaster,US,40.052142,-76.255412,McDonald's,17601,PA,"http://mcdonalds.com,http://www.mcdonalds.com/?cid=RF:YXT_FM:TP::Yext:Referral"
5198,1829 Oregon Pike,Fast Food,Lancaster,US,40.076886,-76.296172,McDonald's,17601,PA,"http://mcdonalds.com,http://www.mcdonalds.com/?cid=RF:YXT_FM:TP::Yext:Referral"
5199,219 Haynes St,Fast Food Restaurant,Johnstown,US,40.320764,-78.919648,McDonald's,15901,PA,"http://mcdonalds.com,http://www.mcdonalds.com/?cid=RF:YXT_FM:TP::Yext:Referral"
5200,516 School House Rd,Fast Food Restaurant,Kennett Square,US,39.859703,-75.691448,McDonald's,19348,PA,"http://mcdonalds.com,http://www.mcdonalds.com/?cid=RF:YXT_FM:TP::Yext:Referral"
5201,530 Galleria Dr,Fast Food Restaurant,Johnstown,US,40.297585,-78.835691,McDonald's,15904,PA,"http://mcdonalds.com,http://www.mcdonalds.com/?cid=RF:YXT_FM:TP::Yext:Referral"
5202,3100 Oakland Ave,Fast Food Restaurant,Indiana,US,40.601765,-79.190508,McDonald's,15701,PA,"http://api.citygridmedia.com/content/places/v2/click?q=9YKflVKbY9NauPJdMy0B1gS1IhB4xv4EWw0zDoT-UWc_izWF3zs5PKGdfOHubWrvM0QwDCYwbOH2fdLi0dK5xArULcksCCbfR-WWAz9xD1AmGVAQZIom4U3n5R4DuRC8WJCtvJcNItEKoCSfzwapuGnmwGnHDpEGYXGjnN4u8zXqkiimSHFf4_dbqGRbVgNJa9jItXEN9sSJ4QKKOJ8dVtSd21O5rexAA3YzSEOJcXOYBOKqkZ5aO453CPUS4dxve2WyV7oQn3DMth5XIxQxV5CVwGkDor2LdzrnSivHjDkm87u8Qfo4qOusqHQdbsuRHzj5rP9oX-te2I6FuokGfLdqYSZGcjoFD6iU9wqWcrjZWEYA5CC84v3-kT9BD7Bw_tfqdWxl240d6Waq34p1K4rYHRMvH3UCqpPxCb9Jzahqghg-FsE9w-eKuPqAE8pRdzFdoh3kodKtjscU4pw-pqsnc_qp7KHLHREeIvw_M2Ut8cuspPsCdqIPpkaxTvJcT65mnj7h5E44lSUoamkUSzw_oEZv7qa5&placement=listing_profile&cs_user=unknown&cs_session=ddea882d7091090d7826184221b12b8cb44d61be,http://mcdonalds.com,http://www.mcdonalds.com/?cid=RF:YXT_FM:TP::Yext:Referral,http://www.mcdonalds.com"
5203,2711 Macdade Blvd,Fast Food Restaurant,Holmes,US,39.899882,-75.304253,McDonald's,19043,PA,"http://mcdonalds.com,http://www.mcdonalds.com/?cid=RF:YXT_FM:TP::Yext:Referral,http://www.mcdonalds.com"
5204,850 Eisenhower Blvd,Fast Food,Harrisburg,US,40.240442,-76.805052,McDonald's,17111,PA,http://mcdonalds.com
5205,1511 Bethlehem Pike,Fast Food Restaurant,Hatfield,US,40.286563,-75.263797,McDonald's,19440,PA,http://mcdonalds.com
5420,2060 Springwood Rd,Fast Food Restaurant,York,US,39.938357,-76.690953,Wendy's,17403,PA,http://www.wendys.com
5421,10 S West End Blvd,Fast Food Restaurant and Burger Joint,Quakertown,US,40.443337,-75.358228,Wendy's,18951,PA,"http://wendys.com,http://www.wendys.com"
5422,234 Shoemaker Rd,Fast Food Restaurants,Pottstown,US,40.255432,-75.665849,Wendy's,19464,PA,http://www.wendys.com
5423,5076 William Penn Hwy,Fast Food Restaurant,Monroeville,US,40.427834,-79.705525,Wendy's,15146,PA,http://www.wendys.com
5424,120 N Hermitage Rd,Fast Food Restaurants,Hermitage,US,41.233765,-80.449572,Wendy's,16148,PA,http://www.wendys.com
5425,6167 York Rd,Fast Food Restaurant,New Oxford,US,39.870819,-77.027981,Wendy's,17350,PA,http://www.wendys.com
5426,6167 York Rd,Fast Food Restaurant and Burger Joint,New Oxford,US,39.870819,-77.027981,Wendy's,17350,PA,http://www.wendys.com
5427,1231 S Main St,Fast Food Restaurant,Greensburg,US,40.282999,-79.549585,Wendy's,15601,PA,"http://www.wendys.com,http://wendys.com"
5428,10490 Perry Hwy,Fast Food Restaurant,Wexford,US,40.608835,-80.052783,Wendy's,15090,PA,http://wendys.com
5429,4679 William Flynn Hwy,Fast Food Restaurant,Allison Park,US,40.592463,-79.948135,Wendy's,15101,PA,http://www.wendys.com
5430,7317 Mcknight Rd,Fast Food Restaurant,Pittsburgh,US,40.537919,-80.011701,Wendy's,15237,PA,http://www.wendys.com
5431,2691 Freeport Rd,Fast Food Restaurant,Pittsburgh,US,40.536593,-79.840641,Wendy's,15238,PA,http://www.wendys.com
5432,20111 Route 19,Fast Food Restaurant,Cranberry Township,US,40.682315,-80.101261,Wendy's,16066,PA,http://www.wendys.com
5433,6 Old Mill Rd,Fast Food Restaurants,Dillsburg,US,40.116715,-77.039265,Wendy's,17019,PA,http://www.wendys.com
5524,141 S State Rd,Fast Food Restaurants,Springfield,US,39.937805,-75.349288,Capriotti's Sandwich Shop,19064,PA,http://capriottis.com
5664,60 Noble Blvd,Fast Food Restaurant,Carlisle,US,40.249173,-77.236544,McDonald's,17013,PA,"http://www.mcdonalds.com/?cid=RF:YXT_FM:TP::Yext:Referral,http://www.mcdonalds.com"
5757,5253 Frankford Ave,Fast Food Restaurants,Philadelphia,US,40.022965,-75.07733,Dairy Queen,19124,PA,"http://www.dairyqueen.com,http://www.dairyqueen.com/,http://dairyqueen.com"
5793,200 W Lehigh Ave,Fast Food,Philadelphia,US,39.99105,-75.135332,McDonald's,19133,PA,"http://mcdonalds.com/,http://mcdonalds.com,http://www.mcdonalds.com/?cid=RF:YXT_FM:TP::Yext:Referral"
5812,248 N Route 100,Fast Food Restaurants,Breinigsville,US,40.576463,-75.622234,Taco Bell,18031,PA,"https://locations.tacobell.com/pa/breinigsville/248-route-100.html?utm_source=yextandutm_campaign=yextpowerlistingsandutm_medium=referralandutm_term=024422andutm_content=website,http://www.tacobell.com"
5923,2100 Washington Pike,Fast food restaurants,Carnegie,US,40.38628,-80.093105,McDonald's,15106,PA,http://mcdonalds.com
5924,2100 Washington Pike,Fast Food Restaurant,Carnegie,US,40.38628,-80.093105,McDonald's,15106,PA,http://mcdonalds.com
5947,1316 N Main Ave,Fast Food Restaurants,Scranton,US,41.430495,-75.664696,Domino's Pizza,18508,PA,"http://www.dominos.com,https://www.dominos.com/en/?redirect=homepage,https://www.dominos.com/en/?redirect=homepage&utm_source=yext&utm_medium=loclist&utm_campaign=localmaps"
5951,5800 Perkiomen Ave,Fast Food Restaurant,Reading,US,40.29623,-75.840569,KFC/Taco Bell,19606,PA,http://www.kfc.com
5984,2656 W 12th St,Fast Food Restaurants,Erie,US,42.10202,-80.140725,KFC,16505,PA,"http://kfc.com,http://www.kfc.com"
6007,700 E Hunting Park Ave,Fast Food Restaurant,Philadelphia,US,40.011584,-75.112833,Wendy's,19124,PA,"http://wendys.com,http://www.wendys.com"
6032,3800 Walnut St,Fast Food Restaurant,McKeesport,US,40.32597,-79.839491,Subway,15132,PA,"http://www.subway.com,http://subway.com"
6123,1774 Lyter Dr,Fast Food Restaurants,Johnstown,US,40.320779,-78.956385,Dairy Queen,15905,PA,http://www.dairyqueen.com
6136,6172 Paradise Valley Rd,Fast Food Restaurant,Cresco,US,41.127132,-75.307086,Kasa's Pizza,18326,PA,"http://www.kasaspizza.com/,http://www.kasaspizza.com"
6160,1830 Broadview Blvd,Fast Food Restaurant,Natrona Heights,US,40.624191,-79.723264,Wendy's,15065,PA,http://www.wendys.com
6163,1185 Easton Rd,Fast Food Restaurants,Abington,US,40.124566,-75.132496,Riviera D'Italia,19001,PA,http://www.rivieraditaliaroslyn.com
6166,1109 S Broad St,Fast Food,Philadelphia,US,39.937467,-75.166834,Papa John's Pizza,19147,PA,"https://www.papajohns.com,http://www.papajohns.com"
6193,368 Greenwood Rd,Fast Food Restaurants,Altoona,US,40.53127,-78.36897,Steele Pier Hotdogs,16602,PA,http://www.steelepierhotdogs.com
6194,1 Rutherford Rd,Fast Food Restaurant,Harrisburg,US,40.292938,-76.807358,Wendy's Valenti Management,17109,PA,http://wendys.valentirestaurants.com
6253,400 S Hermitage Rd,Fast Food Restaurants,Hermitage,US,41.227112,-80.451215,Pizza Hut,16148,PA,"http://www.pizzahut.com,http://pizzahut.com"
6254,112 Perry Hwy,Fast Food Restaurants,Harmony,US,40.804456,-80.136288,Pizza Hut,16037,PA,http://www.pizzahut.com
6255,481 Lincoln Ave,Fast Food Restaurants,Pittsburgh,US,40.460967,-79.91008,Pizza Hut,15202,PA,http://www.pizzahut.com
6364,1597 Washington Pike,Fast Food Restaurants,Bridgeville,US,40.354254,-80.114949,Moe's Southwest Grill,15017,PA,"http://www.moes.com/find-a-moes/pennsylvania/bridgeville/938/,http://moes.com,http://www.moes.com"
6576,5256 State Route 30,Fast Food Restaurants,Greensburg,US,40.302975,-79.507789,Charley's Grilled Subs,15601,PA,http://www.charleyssteakery.com
6652,502 Pottstown Ave,Fast Food,Pennsburg,US,40.393075,-75.502293,McDonald's,18073,PA,"http://mcdonalds.com,http://www.mcdonalds.com/?cid=RF:YXT_FM:TP::Yext:Referral"
6653,502 Pottstown Ave,Fast Food Restaurant,Pennsburg,US,40.393075,-75.502293,McDonald's,18073,PA,"http://mcdonalds.com,http://www.mcdonalds.com/?cid=RF:YXT_FM:TP::Yext:Referral"
6654,503 Constitution Ave,Fast Food,Perkasie,US,40.364075,-75.298555,McDonald's,18944,PA,http://mcdonalds.com
6655,635 S Trooper Rd,Fast Food,Norristown,US,40.128214,-75.40414,McDonald's,19403,PA,"http://mcdonalds.com,http://www.mcdonalds.com/?cid=RF:YXT_FM:TP::Yext:Referral"
6656,6040 York Rd,Fast Food Restaurants,New Oxford,US,39.869575,-77.03161,McDonald's,17350,PA,"http://mcdonalds.com,http://www.mcdonalds.com/?cid=RF:YXT_FM:TP::Yext:Referral,http://api.citygridmedia.com/content/places/v2/click?q=9YKflVKbY9NauPJdMy0B1gS1IhB4xv4EWw0zDoT-UWc_izWF3zs5PKGdfOHubWrvM0QwDCYwbOH2fdLi0dK5xArULcksCCbfR-WWAz9xD1AmGVAQZIom4U3n5R4DuRC8WJCtvJcNItEKoCSfzwapuGnmwGnHDpEGYXGjnN4u8zXqkiimSHFf4_dbqGRbVgNJfft8sKC41k3YIdKKART2Q5ZqpsPUGqYv0uQwGAgzoxg5EHWEybB4RMr7VSaMlkWQleu9ZLfY1Mfz7LbBXGM7X-qmnupXpHkAQo_qAM61KfafsW0r89rNUoY3Q7YYHS2_rM4zSwedsZjnVFtVzF86YPQn1knYtWJPVBoQau-k5RQkt0Dak23DbVok9w34ChfyN4IS_yFKw-Lr1sEaIhEDQI1t3P86CdErAcJRZ150JND6jNnGFWjKMqdMSTzYcQNwCVZvXbAjDXQNmzAlMj61wDql_FOCKaQguuCy3-rNrMsx6anLB2EsKdFc7YW0WoX0IP0ygA2qiWRHYyDXF-eqWiEVdTMcrv4l&placement=listing_profile&cs_user=unknown&cs_session=512a65f74c7315986106f6be1f48c3e94b7d2025"
6657,828 W Main St,Fast Food Restaurant,New Holland,US,40.092579,-76.116848,McDonald's,17557,PA,"http://mcdonalds.com,http://www.mcdonalds.com/?cid=RF:YXT_FM:TP::Yext:Referral"
6658,324 W Bridge St,Fast Food Restaurant,New Hope,US,40.363318,-74.965391,McDonald's,18938,PA,http://mcdonalds.com
6659,180 Market St,Fast Food Restaurant,Nesquehoning,US,40.855364,-75.817927,McDonald's,18240,PA,"http://www.mcdonalds.com/?cid=RF:YXT_FM:TP::Yext:Referral,http://www.mcdonalds.com"
6660,3820 William Penn Hwy,Fast Food Restaurant,Murrysville,US,40.427214,-79.698899,McDonald's,15668,PA,"http://mcdonalds.com,http://www.mcdonalds.com/?cid=RF:YXT_FM:TP::Yext:Referral"
6661,3760 William Penn Hwy,Fast Food,Monroeville,US,40.435713,-79.786683,McDonald's,15146,PA,"http://mcdonalds.com,http://www.mcdonalds.com/?cid=RF:YXT_FM:TP::Yext:Referral"
6761,710 W Girard Ave,Fast Food Restaurants,Philadelphia,US,39.970435,-75.147899,Tiffin,19123,PA,"http://tiffin.com,http://www.tiffin.com,http://www.tiffin.com/"
7003,1229 Schadt Ave,Fast Food Restaurants,Whitehall,US,40.642976,-75.488136,Arby's,18052,PA,"http://www.arbys.com,http://locations.arbys.com/us/pa/whitehall/1229-schadt-ave.html,http://arbys.com"
7009,560 N Main St,Fast Food Restaurant,Doylestown,US,40.324335,-75.130316,Burger King,18901,PA,http://www.bk.com
7010,1950 Lincoln Way E,Fast Food Restaurants,Chambersburg,US,39.92218,-77.599832,Burger King,17202,PA,"https://locations.bk.com/pa/chambersburg/1950-lincoln-way-east.html,http://api.citygridmedia.com/content/places/v2/click?q=9YKflVKbY9NauPJdMy0B1gS1IhB4xv4EWw0zDoT-UWc_izWF3zs5PKGdfOHubWrvM0QwDCYwbOH2fdLi0dK5xArULcksCCbfR-WWAz9xD1AmGVAQZIom4U3n5R4DuRC8WJCtvJcNItEKoCSfzwapuGnmwGnHDpEGYXGjnN4u8zXqkiimSHFf4_dbqGRbVgNJ8m30nk3OlFQN_hHHwsyZvrnKMlQR9ZcD95dGkEtbWJpAgpMNsLP69Oe39BVfuFfZmjib5wSni6ekXpNyvKj8dr7AKdvaZ22_lCWs0EEEsxIllIJyRO510FYuQ07y27MPG2Sk_hoVkSTM3tD42VslYjQxBDgVWnuJ1-9IUg371d1IdND0Uk7pPDmBBAVjKrZD6_Fy_SeMmBL3BWfBvB1xkZdopRbaz856iUbTlhnf2pi5AxFa1O3YPLVXgiQrIr7g7jrJrInKVkv14ctjNIuadE0IR0Ib7NU27POdSEWcoIyVlUmRVRso6RWuDowSVHeyduwn5ak2Sd65oIu48DEYnjDxGpy1-J1gstCn4rIP4AzGWjjkHTMhX1BNPkBGE8N6J0bEc8jSx_eY5Fo9VQngyTi2xmB4yVFZBvkNP1Nppe-Al8gYSPUQRPdHcXCvUPNunuBA26SHKsBGsCLhJ_-BVHsDa3fkADLCoGVjDsvYCi53PwWWCdzLQg&placement=listing_profile&cs_user=unknown&cs_session=f63fc4c61b6c6af3dca2115a57dff31843b5e526"
7011,102 N Logan Blvd,Fast Food Restaurant,Burnham,US,40.629594,-77.567797,Burger King,17009,PA,"http://www.bk.com,https://locations.bk.com/pa/burnham/102-north-logan-blvd.html,https://www.bk.com,http://api.citygridmedia.com/content/places/v2/click?q=9YKflVKbY9NauPJdMy0B1gS1IhB4xv4EWw0zDoT-UWc_izWF3zs5PKGdfOHubWrvM0QwDCYwbOH2fdLi0dK5xArULcksCCbfR-WWAz9xD1AmGVAQZIom4U3n5R4DuRC8WJCtvJcNItEKoCSfzwapuGnmwGnHDpEGYXGjnN4u8zXqkiimSHFf4_dbqGRbVgNJYD3APfFyZb1SUEABa1jmpS3OwA6Ks1I5CDBDFFBKgpJVmXGrtIMYbHEpW6iNyWqS-UAhvAV53OpvnwbLcDnScNrecxauqU0DTg2oqRrCKPe5euu8fDa0oR3eCryNlGbkjThIx5ghuBZniqR3Rb1CSA4guP8KmYPCJjGrShUKiUSxeUJ2_LznEee00pwS8LboMjy5dCHBEsiopyyirHGrEcp0FPU9T52EccHLKCSkQb-TRCtsou8ss6v-nY7sEdNsS5eCqgcWkmkBZ-eLQ6uatZCQVeUbHxe5cIwg1XLqdsJbBPVhb2pHQGMzKhNHg2MrJBe3lIHasI8-DU_A-y7ToA&placement=listing_profile&cs_user=unknown&cs_session=50202b5a42bd35155fe01456721f89817b1069b3"
7012,3924 Linden St,Fast Food Restaurant and Burger Joint,Bethlehem,US,40.644602,-75.319195,Burger King,18020,PA,http://www.bk.com
7013,150 Wilson Rd,Fast Food Restaurant and Burger Joint,Bentleyville,US,40.127755,-80.003201,Burger King,15314,PA,"http://www.bk.com,https://locations.bk.com/pa/bentleyville/150-wilson-rd.html"
7109,5710 Perkiomen Ave,Fast Food Restaurant,Reading,US,40.296603,-75.841676,Dairy Queen,19606,PA,http://www.dairyqueen.com
7110,410 York Rd,Fast Food Restaurants,Willow Grove,US,40.148364,-75.115349,Dairy Queen,19090,PA,http://www.dairyqueen.com
7133,2005 Market St,Fast Food,Philadelphia,US,39.953602,-75.173279,Au Bon Pain,19103,PA,http://www.aubonpain.com
7140,401 S Oxford Valley Rd,Fast Food Restaurants,Fairless Hills,US,40.173145,-74.853228,Pizza Hut,19030,PA,http://www.pizzahut.com
7182,1509 Oregon Pike,Fast Food Restaurants,Lancaster,US,40.061854,-76.305615,Grand China Chinese Restaurant,17601,PA,"http://www.grandchinalancasterpa.com,http://grandchinalancasterpa.com"
7336,8298 Bustleton Ave,Fast Food,Philadelphia,US,40.066613,-75.051176,Dunkin' Donuts,19152,PA,"http://www.dunkindonuts.com,http://dunkindonuts.com"
7337,8000 Pine Rd,Fast Food,Philadelphia,US,40.077221,-75.085188,Dunkin' Donuts,19111,PA,"http://www.dunkindonuts.com,http://www.dunkindonuts.com/"
7413,1428 E High St,Fast Food Restaurants,Pottstown,US,40.243432,-75.617716,McDonald's,19464,PA,"http://mcdonalds.com,http://www.mcdonalds.com/?cid=RF:YXT_FM:TP::Yext:Referral"
7414,7702 Mcknight Rd,Fast Food Restaurants,Pittsburgh,US,40.545413,-80.016243,McDonald's,15237,PA,"http://mcdonalds.com,http://www.mcdonalds.com/?cid=RF:YXT_FM:TP::Yext:Referral"
7415,189 Shoemaker Rd,Fast Food,Pottstown,US,40.252909,-75.659129,McDonald's,19464,PA,http://mcdonalds.com
7416,608 Wood St,Fast Food,Pittsburgh,US,40.44083,-79.886296,McDonald's,15222,PA,"http://www.mcdonalds.com,http://www.mcdonalds.com/?cid=RF:YXT_FM:TP::Yext:Referral"
7417,3708 Forbes Ave,Fast Food Restaurant Central Oakland,Pittsburgh,US,40.441128,-79.957619,McDonald's,15213,PA,http://mcdonalds.com
7418,363 Perry Hwy,Fast Food Restaurant,Pittsburgh,US,40.517801,-80.029354,McDonald's,15229,PA,"http://www.mcdonalds.com,http://www.mcdonalds.com/?cid=RF:YXT_FM:TP::Yext:Referral,http://www.mcdonalds.com/us/en/home.html"
7419,250 Summit Park Dr,Fast Food Restaurants,Pittsburgh,US,40.45116,-80.185857,McDonald's,15275,PA,"http://www.mcdonalds.com/?cid=RF:YXT_FM:TP::Yext:Referral,http://www.mcdonalds.com"
7420,225 Mount Lebanon Blvd,Fast Food Restaurant,Pittsburgh,US,40.368576,-80.037954,McDonald's,15234,PA,"http://mcdonalds.com,http://www.mcdonalds.com/?cid=RF:YXT_FM:TP::Yext:Referral"
7421,549 Clairton Blvd,Fast Food Restaurant,Pittsburgh,US,40.332459,-79.946008,McDonald's,15236,PA,http://mcdonalds.com
7422,100 Davis Blvd,Fast Food Restaurant,Pittsburgh,US,40.449249,-80.173662,McDonald's,15275,PA,"http://mcdonalds.com,http://www.mcdonalds.com/?cid=RF:YXT_FM:TP::Yext:Referral"
7423,1 Poplar St,Fast Food Restaurant,Pittsburgh,US,40.42765,-80.053364,McDonald's,15205,PA,"http://www.mcdonalds.com,http://www.mcdonalds.com/?cid=RF:YXT_FM:TP::Yext:Referral,http://www.mcdonalds.com/us/en/home.html"
7424,1 Poplar St,Fast Food,Pittsburgh,US,40.42765,-80.053364,McDonald's,15205,PA,"http://www.mcdonalds.com,http://www.mcdonalds.com/?cid=RF:YXT_FM:TP::Yext:Referral,http://www.mcdonalds.com/us/en/home.html"
7425,651 Nutt Rd,Fast Food Restaurant,Phoenixville,US,40.131441,-75.533125,McDonald's,19460,PA,http://mcdonalds.com
7426,9970 Bustleton Ave,Fast Food Restaurants,Philadelphia,US,40.100757,-75.029629,McDonald's,19115,PA,"http://mcdonalds.com,http://www.mcdonalds.com/?cid=RF:YXT_FM:TP::Yext:Referral,http://www.mcdonalds.com/"
7427,914 S Broad St,Fast Food,Philadelphia,US,39.93989,-75.166325,McDonald's,19146,PA,"http://mcdonalds.com,http://www.mcdonalds.com/?cid=RF:YXT_FM:TP::Yext:Referral"
7428,6470 Torresdale Ave,Fast Food Restaurants,Philadelphia,US,40.023046,-75.048852,McDonald's,19135,PA,"http://mcdonalds.com,http://www.mcdonalds.com/?cid=RF:YXT_FM:TP::Yext:Referral"
7429,5601 Vine St,Fast Food Restaurant Haddington,Philadelphia,US,39.965623,-75.231926,McDonald's,19139,PA,"http://mcdonalds.com,http://www.mcdonalds.com/?cid=RF:YXT_FM:TP::Yext:Referral,http://mcdonalds.com/"
7430,4200 N Broad St,Fast Food Restaurant,Philadelphia,US,40.016922,-75.149492,McDonald's,19140,PA,"http://mcdonalds.com,http://www.mcdonalds.com/?cid=RF:YXT_FM:TP::Yext:Referral"
7431,4200 N Broad St,Fast Food Restaurants,Philadelphia,US,40.016922,-75.149492,McDonald's,19140,PA,"http://mcdonalds.com,http://www.mcdonalds.com/?cid=RF:YXT_FM:TP::Yext:Referral"
7432,3100 W Allegheny Ave,Fast Food Restaurant and Burger Joint Allegheny West,Philadelphia,US,40.00509,-75.180047,McDonald's,19132,PA,"http://mcdonalds.com,http://www.mcdonalds.com/?cid=RF:YXT_FM:TP::Yext:Referral,http://www.mcdonalds.com/"
7433,2109 N Broad St,Fast Food Restaurant North Philadelphia,Philadelphia,US,39.984838,-75.156546,McDonald's,19122,PA,"http://mcdonalds.com,http://www.mcdonalds.com/?cid=RF:YXT_FM:TP::Yext:Referral,http://mcdonalds.com/"
7472,9 Campbell Blvd,Fast Food,Mercer,US,41.142665,-80.163874,Taco Bell,16137,PA,"http://www.tacobell.com,https://locations.tacobell.com/pa/mercer/9-campbell-blvd.html?utm_source=yextandutm_campaign=yextpowerlistingsandutm_medium=referralandutm_term=030678andutm_content=website,https://locations.tacobell.com/pa/mercer/9-campbell-blvd.html?utm_source=yext&utm_campaign=yextpowerlistings&utm_medium=referral&utm_term=030678&utm_content=website"
7569,1111 Easton Rd,Fast Food Restaurants,Warrington,US,40.244593,-75.136091,Dairy Queen,18976,PA,"http://www.dairyqueen.com,http://dairyqueen.com"
7668,4896 William Flynn Hwy,Sandwiches / Wraps / Fast Food,Allison Park,US,40.601061,-79.946826,Quiznos Sub,15101,PA,http://quiznos.com
7678,905 Loucks Rd,American Restaurant and Fast Food Restaurant,York,US,39.980646,-76.750263,Old Country Buffet,17404,PA,"http://locations.buffet.com/va/woodbridge/0211/,http://locations.buffet.com/PA/YORK/0181/,http://locations.buffet.com/pa/york/0181/,http://www.oldcountrybuffet.com"
7831,2445 Columbia Blvd,Fast Food Restaurants,Bloomsburg,US,41.011834,-76.412614,Taco Bell,17815,PA,"http://www.tacobell.com,https://locations.tacobell.com/pa/bloomsburg/2445-columbia-blvd.html?utm_source=yextandutm_campaign=yextpowerlistingsandutm_medium=referralandutm_term=028977andutm_content=website,https://locations.tacobell.com/pa/bloomsburg/2445-columbia-blvd.html?utm_source=yext&utm_campaign=yextpowerlistings&utm_medium=referral&utm_term=028977&utm_content=website"
7927,700 E Chester Pike,Fast Food Restaurants,Ridley Park,US,39.8794,-75.3123,Domino's Pizza,19078,PA,"https://www.dominos.com/en/?redirect=homepage,https://www.dominos.com/en/?redirect=homepageandutm_source=locallistingsandutm_medium=loclistandutm_campaign=localmaps,https://www.dominos.com/en/?redirect=homepageandutm_source=yextandutm_medium=loclistandutm_campaign=localmaps,http://dominos.com"
7928,142 W Germantown Pike,Fast Food Restaurants,Norristown,US,40.1456,-75.3205,Domino's Pizza,19401,PA,http://www.dominos.com
7951,2415 E State St,Fast Food Restaurant,Hermitage,US,41.233749,-80.464939,Arby's,16148,PA,"http://www.arbys.com,http://locations.arbys.com/us/pa/hermitage/2415-e-state-st.html"
7987,1800 Daisy Street Ext,Fast Food Restaurant,Clearfield,US,41.0234,-78.41351,Long John Silvers,16830,PA,"http://www.ljsilvers.com,http://www.longjohnsilvers.com"
7996,4230 Trindle Rd,Fast Food Restaurant,Camp Hill,US,40.232318,-76.952218,McDonald's,17011,PA,"http://mcdonalds.com,http://www.mcdonalds.com/?cid=RF:YXT_FM:TP::Yext:Referral"
7997,4230 Trindle Rd,Fast Food Restaurant and Burger Joint,Camp Hill,US,40.232318,-76.952218,McDonald's,17011,PA,"http://mcdonalds.com,http://www.mcdonalds.com/?cid=RF:YXT_FM:TP::Yext:Referral"
8048,6031 State Route 30,Fast Food Restaurant and American Restaurant,Greensburg,US,40.30711,-79.57706,SONIC Drive In,15601,PA,"https://locations.sonicdrivein.com/pa/greensburg/6031-route-30.html,http://sonicdrivein.com"
8050,5231 State Route 30,Fast Food Restaurant,Greensburg,US,40.303394,-79.50978,Wendy's,15601,PA,http://www.wendys.com
8051,2590 W State St,Fast Food Restaurant and Burger Joint,New Castle,US,41.01331,-80.3956,Wendy's,16101,PA,http://www.wendys.com
8056,2610 Easton Ave,Fast Food Restaurants,Bethlehem,US,40.64418,-75.346419,McDonald's,18017,PA,http://mcdonalds.com
8057,1223 W Broad St,Fast Food Restaurants,Bethlehem,US,40.62229,-75.40007,TheMINT Gastropub,18018,PA,"http://bethlehemmint.com,http://www.bethlehemmint.com"
8058,7142 Hamilton Blvd,Fast Food Restaurant,Trexlertown,US,40.5504,-75.5982,Wendy's,18087,PA,http://www.wendys.com
8059,701 S 25th St,Fast Food Restaurant,Easton,US,40.6798,-75.2476,Dairy Queen,18045,PA,http://www.dairyqueen.com
8060,4233 Edgmont Ave,Fast Food Restaurants,Brookhaven,US,39.87335,-75.38983,Domino's Pizza,19015,PA,"https://www.dominos.com/en/?redirect=homepageandutm_source=yextandutm_medium=loclistandutm_campaign=localmaps,https://www.dominos.com/en/?redirect=homepage,https://www.dominos.com/en/?redirect=homepageandutm_source=locallistingsandutm_medium=loclistandutm_campaign=localmaps"
8079,1090 York Rd,Fast Food Restaurant,Gettysburg,US,39.84174,-77.206906,McDonald's,17325,PA,"http://mcdonalds.com,http://www.mcdonalds.com/?cid=RF:YXT_FM:TP::Yext:Referral"
8080,1090 York Rd,Fast Food,Gettysburg,US,39.84174,-77.206906,McDonald's,17325,PA,"http://mcdonalds.com,http://www.mcdonalds.com/?cid=RF:YXT_FM:TP::Yext:Referral"
8081,290 Wilson Avenue,Fast Food,Hanover,US,39.8266,-76.9879,SONIC Drive In,17331,PA,https://locations.sonicdrivein.com/pa/hanover/290-wilson-avenue.html
8082,991 Carlisle St,Fast Food,Hanover,US,39.815992,-76.993351,McDonald's,17331,PA,"http://mcdonalds.com,http://www.mcdonalds.com/?cid=RF:YXT_FM:TP::Yext:Referral"
8134,913 Wyoming Ave,Fast food restaurants,Wyoming,US,41.3013,-75.8541,McDonald's,18644,PA,"http://mcdonalds.com,http://www.mcdonalds.com/?cid=RF:YXT_FM:TP::Yext:Referral,http://www.mcdonalds.com"
8141,141 Main St,Fast Food Restaurants,Bradford,US,41.95599,-78.646307,McDonald's,16701,PA,"http://api.citygridmedia.com/content/places/v2/click?q=9YKflVKbY9NauPJdMy0B1gS1IhB4xv4ESe32aGoZZfGxPUKOAupg6AXFQsvl2-A1Ztd21x5FLKumNpUzGNTBeMk2RvPjC41ZIvgiFwjULRMf936HQ-3fDilu-Jgq-3DroFPqeb7LaXUO4XtGt4yXSJsg9W4tlLVRNocJRkydaRxa9wTgFisP8W1xHayi-pt4OgXGCzmTVy7b4vLRDmYr2sleOsPxc8cFVLNw0wN79zyOYdYFKIWoOXyJRwaw0AeW-CILrsDoanRhqcEOpZfO0ZAnLPH-hk2Wacs38OqQQDRta8LSckWcseltFhiunrGag40BBAlN56eCrzWKdB9tbkcMVQjr5xRnZQ13je610KruxG7azayh2_yofVIAWlBzVktDZkaIHM4nVlvaYJfpw5QJPVnW4Ah53xwcnsuyCHKMq3L6SKZPzzhpo1P_HrsmR0KWDOWlfvZPrrW_LRDPuQX_OYEsg0f1fb_XH2AAzxF5XuA0MdrNQtFTzFCTw8sI8J9BekcjRdHZfsVirc2T05LRJrPx_T-Q&placement=listing_profile.c&cs_user=unknown&cs_session=f7f54592bce3e2f9fabb3dba14d3b4f6e68bbaf6,http://mcdonalds.com,http://www.mcdonalds.com/?cid=RF:YXT_FM:TP::Yext:Referral,http://www.mcdonalds.com"
8142,141 Main St,Fast Food,Bradford,US,41.95599,-78.646307,McDonald's,16701,PA,"http://api.citygridmedia.com/content/places/v2/click?q=9YKflVKbY9NauPJdMy0B1gS1IhB4xv4ESe32aGoZZfGxPUKOAupg6AXFQsvl2-A1Ztd21x5FLKumNpUzGNTBeMk2RvPjC41ZIvgiFwjULRMf936HQ-3fDilu-Jgq-3DroFPqeb7LaXUO4XtGt4yXSJsg9W4tlLVRNocJRkydaRxa9wTgFisP8W1xHayi-pt4OgXGCzmTVy7b4vLRDmYr2sleOsPxc8cFVLNw0wN79zyOYdYFKIWoOXyJRwaw0AeW-CILrsDoanRhqcEOpZfO0ZAnLPH-hk2Wacs38OqQQDRta8LSckWcseltFhiunrGag40BBAlN56eCrzWKdB9tbkcMVQjr5xRnZQ13je610KruxG7azayh2_yofVIAWlBzVktDZkaIHM4nVlvaYJfpw5QJPVnW4Ah53xwcnsuyCHKMq3L6SKZPzzhpo1P_HrsmR0KWDOWlfvZPrrW_LRDPuQX_OYEsg0f1fb_XH2AAzxF5XuA0MdrNQtFTzFCTw8sI8J9BekcjRdHZfsVirc2T05LRJrPx_T-Q&placement=listing_profile.c&cs_user=unknown&cs_session=f7f54592bce3e2f9fabb3dba14d3b4f6e68bbaf6,http://mcdonalds.com,http://www.mcdonalds.com/?cid=RF:YXT_FM:TP::Yext:Referral,http://www.mcdonalds.com"
8144,122 N Market St,Fast Food Restaurants,Ligonier,US,40.24251,-79.238464,Subway,15658,PA,http://www.subway.com
8156,490 Central Ave,Fast Food Restaurant,Johnstown,US,40.2996,-78.9115,Sheetz,15902,PA,http://www.sheetz.com
8161,603 Route 739,Fast Food Restaurant,Hawley,US,41.3606,-75.0591,McDonald's,18428,PA,http://mcdonalds.com
8168,402 E Main St,Fast Food Restaurants,Bradford,US,41.964,-78.6269,Togi's Sub Station,16701,PA,http://www.togissubstation.com
8210,260 N Pottstown Pike,Fast Food Restaurant,Exton,US,40.03444,-75.6336,McDonald's,19341,PA,http://mcdonalds.com
8395,5940 University Blvd,Fast Food Restaurants,Coraopolis,US,40.52199,-80.21862,Burger King,15108,PA,"https://locations.bk.com/pa/coraopolis/5940-university-blvd.html,http://www.bk.com"
8396,2805 Gracy Center Way,Fast Food,Coraopolis,US,40.51616,-80.21953,McDonald's,15108,PA,"http://mcdonalds.com,http://www.mcdonalds.com/?cid=RF:YXT_FM:TP::Yext:Referral"
8397,109 Cavasina Dr,Fast Food Restaurants,Canonsburg,US,40.2629,-80.1746,KFC,15317,PA,http://www.kfc.com
8398,200 Walmart Dr,Fast Food Restaurant,Gibsonia,US,40.621246,-79.944277,McDonald's,15044,PA,"http://mcdonalds.com,http://www.mcdonalds.com/?cid=RF:YXT_FM:TP::Yext:Referral"
8399,4221 Ohio River Blvd,Fast Food Restaurant,Pittsburgh,US,40.48643,-80.05481,BeanThru,15202,PA,http://www.beanthru.com
8400,31 Towne Center Dr,Fast Food Restaurant,Leechburg,US,40.608448,-79.61083,Wendy's,15656,PA,http://www.wendys.com
8401,14 Hilltop Plz,Fast Food Restaurant,Kittanning,US,40.81281452,-79.54347387,Taco Bell/KFC,16201,PA,http://www.tacobell.com
8458,67 W State St,Fast food restaurants,Sharon,US,41.232869,-80.510068,McDonald's,16146,PA,"http://www.mcdonalds.com,http://api.citygridmedia.com/content/places/v2/click?q=9YKflVKbY9NauPJdMy0B1gS1IhB4xv4EWw0zDoT-UWc_izWF3zs5PKGdfOHubWrvM0QwDCYwbOH2fdLi0dK5xArULcksCCbfR-WWAz9xD1AmGVAQZIom4U3n5R4DuRC8WJCtvJcNItEKoCSfzwapuGnmwGnHDpEGYXGjnN4u8zXqkiimSHFf4_dbqGRbVgNJV1V7NnSu9Pt6B0v4GcoSyCywMuDeQKOoH1trKjsCuRFv1cYs3nxN2bbbUjHTDwnsCL2_XGbQZ_v9-1DE34jXGI3Tcnc8s3Pwigd5Ug8RwtiC5URfkL7r7ZH-DSN1KBrykx2pJklYieJTW4G6A5zzX_hLg2iSQ-rdtKkJGHZwbVodcC2-1gQk-c3VqHv-CvErenPgBmVwwtiqMU7TIQG98gBnlWSEvedx7XgtOzh6U_L94oUWiwRfVkIVUyWfrPrerj9Xjekws1slOaszPUGUwxmV8KpBETfF1t_8C5P9YPEoQGXf8PgyiLBYsTF8Fdn_U-CJ6mSFURaCkzPguoxzUSS0VgUWDJabgqdpf6xhoUY&placement=listing_profile&cs_user=unknown&cs_session=68acf2187271018b58e6fbf1bc5eaa205691e921"
8459,430 Elizabeth Ave,Fast Food Restaurant,Reading,US,40.38506,-75.926889,McDonald's,19605,PA,http://mcdonalds.com
8469,200 W Main St,Fast Food,Grove City,US,41.157888,-80.088702,McDonald's,16127,PA,"http://mcdonalds.com,http://www.mcdonalds.com/?cid=RF:YXT_FM:TP::Yext:Referral"
8470,517 Steinwehr Ave,Fast Food Restaurant,Gettysburg,US,39.817071,-77.236157,McDonald's,17325,PA,"http://mcdonalds.com,http://www.mcdonalds.com/?cid=RF:YXT_FM:TP::Yext:Referral"
8471,475 S Oxford Valley Rd,Fast Food Restaurant and American Restaurant,Fairless Hills,US,40.170803,-74.85172,McDonald's,19030,PA,"http://mcdonalds.com,http://www.mcdonalds.com/?cid=RF:YXT_FM:TP::Yext:Referral"
8472,7855 Perry Hwy,Fast Food,Erie,US,42.071115,-80.039596,McDonald's,16509,PA,"http://mcdonalds.com,http://www.mcdonalds.com/?cid=RF:YXT_FM:TP::Yext:Referral"
8481,520 3rd Ave,Fast Food Restaurants,Pittsburgh,US,40.437239,-79.997301,Chinatown Inn,15219,PA,"http://chinatowninn.net,http://www.chinatowninn.net"
8630,865 Rostraver Rd,Fast Food Restaurant,Belle Vernon,US,40.1382,-79.84298,KFC,15012,PA,http://www.kfc.com
8632,806 Rostraver Rd,Fast Food Restaurant,Belle Vernon,US,40.136482,-79.84282,A&W/Long John Silvers,15012,PA,http://www.awrestaurants.com
8633,3946 Brodhead Rd,Fast food restaurants,Monaca,US,40.68061,-80.30226,McDonald's,15061,PA,"http://mcdonalds.com,http://www.mcdonalds.com/?cid=RF:YXT_FM:TP::Yext:Referral"
8638,4371 Richmond St,Fast Food Restaurants,Philadelphia,US,39.996712,-75.074352,Wawa,19137,PA,"http://www.wawa.com,https://www.wawa.com"
8647,320 S West End Blvd,Fast Food Restaurants,Quakertown,US,40.435,-75.3533,Pizza Hut,18951,PA,http://www.pizzahut.com
8670,340 Eisenhower Dr,Fast Food Restaurants,Hanover,US,39.82498,-76.9849,Chick-fil-A,17331,PA,"http://www.chick-fil-a.com/hanover,http://www.chick-fil-a.com"
8760,430 State St,Fast Food Restaurants,Erie,US,42.130325,-80.086874,McDonald's,16501,PA,"http://mcdonalds.com,http://www.mcdonalds.com/?cid=RF:YXT_FM:TP::Yext:Referral,http://api.citygridmedia.com/content/places/v2/click?q=9YKflVKbY9NauPJdMy0B1gS1IhB4xv4EWw0zDoT-UWc_izWF3zs5PKGdfOHubWrvM0QwDCYwbOH2fdLi0dK5xArULcksCCbfR-WWAz9xD1AmGVAQZIom4U3n5R4DuRC8WJCtvJcNItEKoCSfzwapuGnmwGnHDpEGYXGjnN4u8zXqkiimSHFf4_dbqGRbVgNJC0dodFjNyWqMaDbBRVaDTAUg7Bayu-1bGmKcnaiVIiiMT8Z_ZFW66LGuWdS6Ag7smES8SJj7VMBhNsRcvRUzF6xJ6x3OPiuEGWcPuDGAVckYVS9_mOWWNPga-BDBYoo_oL83RdnhQAXencRmIJsakLD_zFE8ePWCkuyRWVbK-LMB4rTIjLFgOXEfQPnl6-YXxxBntUY2TDDULrnLTAVk1Kg8ZbJGv0rw-s2OFbertgI3reewYOi_XvNNcdHZJX8Y2fajbkIE9qGwNXTVXu0woK19QlMPX6THBM_IoECxblKoulnfRmgm6qgJFHrx-rnoz4y84VRgV5ZyWk9dK-zq9VAaxYiuitUP&placement=listing_profile&cs_user=unknown&cs_session=7eeed4d4b69eb9c98bc32bdc72dce3f825df0598"
8764,75 Commerce Cir,Fast Food Restaurant,Bristol,US,40.099377,-74.872876,McDonald's,19007,PA,http://mcdonalds.com
8765,4316 Buffalo Rd,Fast Food,Erie,US,42.146291,-80.00426,McDonald's,16510,PA,"http://mcdonalds.com,http://www.mcdonalds.com/?cid=RF:YXT_FM:TP::Yext:Referral,http://api.citygridmedia.com/content/places/v2/click?q=9YKflVKbY9NauPJdMy0B1gS1IhB4xv4EWw0zDoT-UWc_izWF3zs5PKGdfOHubWrvM0QwDCYwbOH2fdLi0dK5xArULcksCCbfR-WWAz9xD1AmGVAQZIom4U3n5R4DuRC8WJCtvJcNItEKoCSfzwapuGnmwGnHDpEGYXGjnN4u8zXqkiimSHFf4_dbqGRbVgNJMEsyqLWgBLhwuLOLaKte0FR242fItKJMNnous3u0NYQOagV_tCFUZEg4UeNWzkd8Y1eqGS2W5tCE8GC05-fK9oCYoW29Q-lnH350vYbXPhaYiEwIc2kq74yEUttOvDo3OzEfYGInfEh7g7fXKeQ3R34zGGVprSaidD4NNbvbyRUrwF9gW6RidRcXUN_DV5v_yM2XOtKeQxKsCihjNkMxR25xxN6Ak9hK2r6Ujm4FmqdE4rpLbtXevC3iK6uHdO89ckVy2a4FqhjId5-_JC6a1UwaJYuyTCcKvk0Y9MNVQLMsoT0PfdW5l5xRCGn_eVLuWyuLVOBqoDnbBRMOMNXcM6knIvoZeFK4&placement=listing_profile&cs_user=unknown&cs_session=f3962862de7f0044d238024a0627c0cf588009b8"
8767,1284 S Market St,Fast Food Restaurants,Elizabethtown,US,40.139348,-76.589311,McDonald's,17022,PA,"http://mcdonalds.com,http://www.mcdonalds.com/?cid=RF:YXT_FM:TP::Yext:Referral"
8768,15 5th St,Fast food restaurants,Ellwood City,US,40.8619,-80.286889,McDonald's,16117,PA,"http://mcdonalds.com,http://www.mcdonalds.com/?cid=RF:YXT_FM:TP::Yext:Referral,http://www.mcdonalds.com"
8770,1930 Street Rd,Fast food restaurants,Bensalem,US,40.096612,-74.945375,McDonald's,19020,PA,http://mcdonalds.com
8771,5261 Library Rd,Fast Food Restaurant,Bethel Park,US,40.332263,-80.023221,McDonald's,15102,PA,"http://mcdonalds.com,http://www.mcdonalds.com/?cid=RF:YXT_FM:TP::Yext:Referral"
8772,2546 Constitution Blvd,Fast Food Restaurant,Beaver Falls,US,40.772636,-80.373497,McDonald's,15010,PA,"http://mcdonalds.com,http://www.mcdonalds.com/?cid=RF:YXT_FM:TP::Yext:Referral"
8773,111 W Lancaster Ave,Fast Food Restaurants,Ardmore,US,40.008996,-75.293209,McDonald's,19003,PA,"http://www.mcdonalds.com/?cid=RF:YXT_FM:TP::Yext:Referral,http://mcdonalds.com"
8774,1240 Bristol Pike,Fast Food Restaurants,Bensalem,US,40.071121,-74.966297,McDonald's,19020,PA,"http://mcdonalds.com,http://www.mcdonalds.com/?cid=RF:YXT_FM:TP::Yext:Referral"
8776,407 E Plank Rd,Fast Food Restaurants,Altoona,US,40.480114,-78.402654,McDonald's,16602,PA,"http://api.citygridmedia.com/content/places/v2/click?q=9YKflVKbY9NauPJdMy0B1gS1IhB4xv4EWw0zDoT-UWc_izWF3zs5PKGdfOHubWrvM0QwDCYwbOH2fdLi0dK5xArULcksCCbfR-WWAz9xD1AmGVAQZIom4U3n5R4DuRC8WJCtvJcNItEKoCSfzwapuGnmwGnHDpEGYXGjnN4u8zXqkiimSHFf4_dbqGRbVgNJagszsvgY21SY8jpgEnTnZPiK9mdFrpRoGc_-DZyYP87YG76N3zp_c3wz785GwWmW5_6uS2HMET3KfKzrrmSfNdY3OHgT-q1oAu3RdsudNGBRF966P7rxdjhRQA_uw31H-TIyzZjMR3WosFPPrpffxvvHbAlUJQBZ8o-Qo7INSeNWlswZ6HS0lAwxKAIjL5vVkTtXUzANi5N1LVjSxpTSZ85VgmBBx5yIk_F90cpjp_KMX2JZ0hoD7dy3nij_DKKgRCYEGMquOhU6XdHdHg3Y-hE4aCKkUONC-ViVK6DyOv9vVEjAOdTd8am9wKnXMx5DoBdWmh-RL_oiP3Vv2hJV_PO1LP1SLNid&placement=listing_profile&cs_user=unknown&cs_session=cb215e8816492f12f4448bc10134033cd6f2a675,http://mcdonalds.com,http://www.mcdonalds.com/?cid=RF:YXT_FM:TP::Yext:Referral"
8882,502 Washington Rd,Fast Food Restaurants,Washington,US,40.190334,-80.213019,Subway,15301,PA,http://www.subway.com
8926,48 Davis St,Fast Food Restaurants,Bradford,US,41.95463,-78.64573,SUBWAY,16701,PA,http://www.subway.com
8941,619 Baltimore St,Fast Food Restaurants,Gettysburg,US,39.82258,-77.23096,Subway,17325,PA,http://www.subway.com
8954,1318 Pocono Blvd,Fast Food Restaurant and Burger Joint,Mount Pocono,US,41.12582,-75.35998,Burger King,18344,PA,"https://locations.bk.com/pa/mount-pocono/1318-pocono-blvd.html,http://www.bk.com"
8964,136 Strawberry Sq,Fast Food Restaurants,Harrisburg,US,40.259785,-76.882783,Subway,17101,PA,http://www.subway.com
8965,22 Old Forge Rd,Fast Food,Jonestown,US,40.4496,-76.5152,McDonald's,17038,PA,"http://mcdonalds.com,http://www.mcdonalds.com/?cid=RF:YXT_FM:TP::Yext:Referral"
8967,5083 Jonestown Rd,Fast Food Restaurant,Harrisburg,US,40.30807,-76.80277,Old Country Buffet,17112,PA,"http://locations.buffet.com/va/woodbridge/0211/,http://locations.buffet.com/pa/harrisburg/0234/,http://www.oldcountrybuffet.com"
9083,462 N Keystone Ave,Fast Food Restaurant and Mexican Restaurant,Sayre,US,41.99485,-76.52941,Taco Bell,18840,PA,"https://locations.tacobell.com/pa/sayre/462-n--keystone-avenue.html?utm_source=yextandutm_campaign=yextpowerlistingsandutm_medium=referralandutm_term=H495005andutm_content=website,http://api.citygridmedia.com/content/places/v2/click?q=9YKflVKbY9NauPJdMy0B1gS1IhB4xv4EWw0zDoT-UWc_izWF3zs5PKGdfOHubWrvM0QwDCYwbOH2fdLi0dK5xArULcksCCbfR-WWAz9xD1AmGVAQZIom4U3n5R4DuRC8WJCtvJcNItEKoCSfzwapuGnmwGnHDpEGYXGjnN4u8zXqkiimSHFf4_dbqGRbVgNJFBHZfJwqdWMdMNEbGSvq4jeG_dbsOAKCakvf5agv7rQAEhPBSJPYWRjESbypmtZAKecCeZ0ra8hEq9QGOP2oi_JAoV1ENv2BTwobB2D8Gk457ZnRWvpEXzSsvtAHvkPLNxwp0hdJctof6FT-yffxZCvCvzbsmRAsls79U-5nZzGkIPEywDrEcLJgxAjRW3ud5rTjHcA4M0U0jSnPJkWY1v4diETsQVJX5m3d4hkVyKOptzTIn_EYXah4M1JXsDsGQYW0KWvZxJqX_NfJUU5Vp9FlkQ3iyxLkb4EtFdJWpJn6oaPEqsUItfcHKHMKE1O3vUWoQ8ZWzRlG_3WyzgviE44fllJQcBJp&placement=listing_profile&cs_user=unknown&cs_session=f407142c9e9cd0a345b8ec4a5bbb6bdbd0c4e15a,http://www.tacobell.com"
9109,4701 William Penn Hwy,Fast Food Restaurant,Murrysville,US,40.42536,-79.66739,Sheetz,15668,PA,http://www.sheetz.com
9114,1925 Leesburg Grove City Rd,Fast Food Restaurant,Grove City,US,41.14342,-80.1588,Wendy's,16127,PA,http://www.wendys.com
9116,256 Danner Rd Ste 1,Fast Food Restaurants,Jim Thorpe,US,40.96861,-75.63328,Quiznos,18229,PA,http://restaurants.quiznos.com/pa/jimthorpe/hickoryruntravelplaza-18229
9117,244 Strawberry Sq,Fast Food Restaurant,Harrisburg,US,40.26197334,-76.88118964,Arby's,17101,PA,http://www.arbys.com
9118,182 S Sgt Stanley Hoffman Blvd,Fast Food Restaurants,Lehighton,US,40.83189,-75.70706,Domino's Pizza,18235,PA,"https://www.dominos.com/en/?redirect=homepage,https://www.dominos.com/en/?redirect=homepageandutm_source=locallistingsandutm_medium=loclistandutm_campaign=localmaps"
9122,1833 S 4th St,Fast Food Restaurant,Allentown,US,40.581753,-75.456825,KFC,18103,PA,"http://kfc.com,http://www.kfc.com"
9126,308 Broadway,Fast Food Restaurant,Bethlehem,US,40.61011,-75.3829,Wendy's,18015,PA,http://www.wendys.com
9127,308 Broadway,Fast Food Restaurants,Bethlehem,US,40.61011,-75.3829,Wendy's,18015,PA,http://www.wendys.com
9128,1980 S 4th St,Fast Food Restaurant,Allentown,US,40.577988,-75.45445,Wendy's,18103,PA,http://www.wendys.com
9134,1258 Pocono Blvd,Fast Food Restaurant and Burger Joint,Mount Pocono,US,41.12844,-75.361629,Wendy's,18344,PA,http://www.wendys.com
9145,2733 Papermill Rd,Fast Food Restaurants,Reading,US,40.31449,-76.024086,Chipotle Mexican Grill,19610,PA,http://www.chipotle.com
9160,4145 William Penn Hwy,Fast Food Restaurants,Monroeville,US,40.43932,-79.76593,SUBWAY,15146,PA,"http://www.subway.com,http://subway.com"
9161,4635 High Pointe Blvd,Fast Food Restaurants,Harrisburg,US,40.24518907,-76.80411409,Subway,17111,PA,"http://www.subway.com,http://subway.com"
9164,160 Brooklyn St,Fast Food,Carbondale,US,41.566,-75.5143,McDonald's,18407,PA,"http://mcdonalds.com,http://www.mcdonalds.com/?cid=RF:YXT_FM:TP::Yext:Referral"
9189,707 Main St,Fast Food Restaurants,Clarion,US,41.21349,-79.38179,McDonald's,16214,PA,"http://api.citygridmedia.com/content/places/v2/click?q=9YKflVKbY9NauPJdMy0B1gS1IhB4xv4EWw0zDoT-UWc_izWF3zs5PKGdfOHubWrvM0QwDCYwbOH2fdLi0dK5xArULcksCCbfR-WWAz9xD1AmGVAQZIom4U3n5R4DuRC8WJCtvJcNItEKoCSfzwapuGnmwGnHDpEGYXGjnN4u8zXqkiimSHFf4_dbqGRbVgNJ10yb10muikbV-zGL67O13kMmqe7_hapjg5dyADUskVGpggKLzaMkVEP6wyCUYxanNrfEzVju3BE_A9S_YzNVIIrP1-EMK0ZA_86E03xvVPy8FOucUfUzXjMKiI4qj1ibiMA_HGDNJVn2YBdDR2_M7q3R2xZbsbV9NQ-yjP5zfko0kOSjabcO5_Njfp5OpvI1O2yGHkrkhE2SLCX1RW7DIorD8npsDzbdPEWvNmvpsAPFx1KXEwyOGmJOnQmL_Yqzl8tiHNHzcOcGNxh54oCkcPfsLmjPgmIBF2yTvFYcehSI1hT4fCPZHn1WGjFlBDhd0NK0PsC5h2sTwqnYpunSbqIrH4hmrWN_&placement=listing_profile&cs_user=unknown&cs_session=1596a6a205c65ba7c786725501ff8fa4c657b08b,http://mcdonalds.com,http://www.mcdonalds.com/?cid=RF:YXT_FM:TP::Yext:Referral"
9192,635 N Derr Dr,Fast Food Restaurant,Lewisburg,US,40.97024,-76.89346,Wendy's,17837,PA,http://www.wendys.com
9199,100 Lunger Dr,Fast Food Restaurants,Bloomsburg,US,41.00847,-76.48565,McDonald's,17815,PA,"http://mcdonalds.com,http://www.mcdonalds.com/?cid=RF:YXT_FM:TP::Yext:Referral"
9213,339 Main St,Fast Food Restaurant and Burger Joint,Johnstown,US,40.326614,-78.920599,Burger King,15901,PA,"http://burgerking.com,http://www.burgerking.com"
9474,820 Kenhorst Plz,Fast Food Restaurant,Reading,US,40.300225,-75.948111,Dairy Queen,19607,PA,http://www.dairyqueen.com
9602,802 S Saint Marys St,Fast Food Restaurants,Saint Marys,US,41.4127,-78.56127,Dairy Queen (Treat Only),15857,PA,http://www.dairyqueen.com
9611,360 Jackson Run Rd,Fast Food Restaurants,Warren,US,41.87623,-79.15219,Bob Evans,16365,PA,https://www.bobevans.com/our-restaurants/locations/554
9612,451 W 3rd St,Fast Food Restaurants,Mifflinville,US,41.02347,-76.2924,Subway,18631,PA,http://www.subway.com
9613,1509 Rock Cut Rd,Fast Food Restaurants,Central City,US,40.0585,-78.82761,Subway,15926,PA,http://www.subway.com
9614,922 Loucks Rd,"Fast Food Restaurant, American Restaurant, and Sandwich Place",York,US,39.97978,-76.75279,Chick-Fil-A,17404,PA,"http://www.chick-fil-a.com/loucksroad,http://www.chick-fil-a.com"
9616,795 Philadelphia St,Fast Food Restaurant,Indiana,US,40.62307,-79.1545,Jimmy John's,15701,PA,http://www.jimmyjohns.com
9617,180 Montgomery Pike,Fast Food Restaurants,Williamsport,US,41.22704,-76.98711,McDonald's,17702,PA,"http://mcdonalds.com,http://www.mcdonalds.com/?cid=RF:YXT_FM:TP::Yext:Referral"
9618,1568 Osgood Dr,Fast Food Restaurants,Altoona,US,40.48599,-78.38817,Dairy Queen,16602,PA,http://www.dairyqueen.com
9619,705 N 4th Ave,Fast Food Restaurants,Altoona,US,40.53876,-78.38138,The Hotdog Shoppe,16601,PA,http://thehotdogshoppedotcom.com
9674,Route 62,Fast Food Restaurants,Tidioute,US,41.57917,-79.40229,Fox's Pizza Den,16351,PA,http://www.foxspizzaden.com
9788,891 Freeport Rd,Fast Food Restaurant,Pittsburgh,US,40.4995,-79.8529,Wendy's,15238,PA,http://www.wendys.com
9790,300 S Craig St,Fast Food Restaurants,Pittsburgh,US,40.44557,-79.94915,Quiznos,15213,PA,"http://restaurants.quiznos.com/pa/pittsburgh/carnegiemellonuniversity-15213,http://quiznos.com"
9791,5427 Oxford Ave,Fast Food,Philadelphia,US,40.03096,-75.08434,Checkers,19124,PA,"https://locations.checkers.com/pa/philadelphia/5427-oxford-avenue,http://www.checkers.com,https://www.checkers.com,http://checkers.com/"
9792,5427 Oxford Ave,Fast Food Restaurants,Philadelphia,US,40.03096,-75.08434,Checkers,19124,PA,"https://locations.checkers.com/pa/philadelphia/5427-oxford-avenue,http://www.checkers.com,https://www.checkers.com,http://checkers.com/"
9806,5129 Market St,Fast Food Restaurants,Philadelphia,US,39.96014,-75.2243,Checkers,19139,PA,"https://locations.checkers.com/pa/philadelphia/5129-market-street,https://www.checkers.com"
9808,527 Franklin Mills Cir,Fast Food,Philadelphia,US,40.08174,-74.9616,KFC,19154,PA,"http://www.kfc.com,http://www.kfc.com/,http://kfc.com"
9809,3359 Kensington Ave,Fast Food Restaurants,Philadelphia,US,39.99864,-75.10917,7-Eleven,19134,PA,"http://www.7-eleven.com,http://www.7-eleven.com/?yext=21048,http://7-eleven.com/?yext=21048"
9811,2900 Island Ave,Fast Food,Philadelphia,US,39.90384,-75.24059,Burger King,19153,PA,"http://www.bk.com,https://locations.bk.com/pa/philadelphia/2900-island-ave.html,http://www.burgerking.com/"
9812,5720 Baltimore Ave,Fast Food Restaurant and Burger Joint,Philadelphia,US,39.94566629,-75.23952836,Checkers,19143,PA,"https://locations.checkers.com/pa/philadelphia/5726-46-baltimore-avenue,http://www.checkers.com,http://checkers.com"
9813,5720 Baltimore Ave,Fast Food Restaurants,Philadelphia,US,39.94566629,-75.23952836,Checkers,19143,PA,"https://locations.checkers.com/pa/philadelphia/5726-46-baltimore-avenue,http://www.checkers.com,http://checkers.com"
9814,5700 Baltimore Ave,Fast Food Restaurant,Philadelphia,US,39.946,-75.2376,KFC,19143,PA,http://www.kfc.com
9815,2422 W Passyunk Ave,Fast Food Restaurant,Philadelphia,US,39.92207,-75.18748,Taco Bell,19145,PA,"http://www.tacobell.com,https://locations.tacobell.com/pa/philadelphia/2422-w-passyunk-avenue.html?utm_source=yextandutm_campaign=yextpowerlistingsandutm_medium=referralandutm_term=K071099andutm_content=website"
9819,3604 Chestnut St,Fast Food Restaurants,Philadelphia,US,39.9546,-75.1946,Wawa,19104,PA,https://www.wawa.com
